{
"type": "FeatureCollection",
"name": "willisau_2024_swissbuildings3D_clip",
"crs": { "type": "name", "properties": { "name": "urn:ogc:def:crs:EPSG::2056" } },
"features": [
{"type":"Feature","properties":{"fid":224,"OBJECTID":1,"UUID":"{0241BDAF-FECA-476C-BB76-2B1614C5FEC1}","OBJEKTART":"Gebaeude Einzelhaus","NAME_KOMPLETT":null,"GEBAEUDE_NUTZUNG":null,"GRUND_AENDERUNG":"Verbessert","HERKUNFT":"swisstopo","HERKUNFT_JAHR":2024,"HERKUNFT_MONAT":6,"ORIGINAL_HERKUNFT":"swisstopo","ERSTELLUNG_JAHR":2024,"ERSTELLUNG_MONAT":6,"REVISION_JAHR":2024,"REVISION_MONAT":6,"DATUM_AENDERUNG":"2025-07-08T11:55:40Z","DATUM_ERSTELLUNG":"2025-07-08T11:55:40Z","DACH_MAX":571.05,"DACH_MIN":567.57,"EGID":187524,"GEBAEUDEEINHEIT":"{0161A195-33E8-41ED-A8F7-CD5593D4FBF9}","layer":"swissbuildings3d_3_0_2024_1129-33_2056_5728.gdb — swissBUILDINGS3D_3-0_1129-33.gdb/a0000000b.gdbtable","path":"/vsizip//Users/wulf/Downloads/swissbuildings3d_3_0_2024_1129-33_2056_5728.gdb.zip/swissBUILDINGS3D_3-0_1129-33.gdb/a0000000b.gdbtable|layername=Roof_solid"},"geometry":{"type":"Polygon","coordinates":[[[2641789.19,1218648.748769231140614,605.901620765247117],[2641801.703000001609325,1218650.353000000119209,605.818499999993946],[2641804.24100000038743,1218630.537999998778105,606.018500000005588],[2641789.19,1218628.608953151851892,605.888418635239418],[2641789.19,1218648.748769231140614,605.901620765247117]]]}},
{"type":"Feature","properties":{"fid":226,"OBJECTID":1,"UUID":"{0241BDAF-FECA-476C-BB76-2B1614C5FEC1}","OBJEKTART":"Gebaeude Einzelhaus","NAME_KOMPLETT":null,"GEBAEUDE_NUTZUNG":null,"GRUND_AENDERUNG":"Verbessert","HERKUNFT":"swisstopo","HERKUNFT_JAHR":2024,"HERKUNFT_MONAT":6,"ORIGINAL_HERKUNFT":"swisstopo","ERSTELLUNG_JAHR":2024,"ERSTELLUNG_MONAT":6,"REVISION_JAHR":2024,"REVISION_MONAT":6,"DATUM_AENDERUNG":"2025-07-08T11:55:40Z","DATUM_ERSTELLUNG":"2025-07-08T11:55:40Z","DACH_MAX":571.05,"DACH_MIN":567.57,"EGID":187524,"GEBAEUDEEINHEIT":"{0161A195-33E8-41ED-A8F7-CD5593D4FBF9}","layer":"swissbuildings3d_3_0_2024_1129-33_2056_5728.gdb — swissBUILDINGS3D_3-0_1129-33.gdb/a0000000b.gdbtable","path":"/vsizip//Users/wulf/Downloads/swissbuildings3d_3_0_2024_1129-33_2056_5728.gdb.zip/swissBUILDINGS3D_3-0_1129-33.gdb/a0000000b.gdbtable|layername=Roof_solid"},"geometry":{"type":"Polygon","coordinates":[[[2641789.19,1218715.072408913634717,599.043438125967441],[2641790.280071980785578,1218714.22809107741341,598.845800366595768],[2641796.563000001013279,1218722.177999999374151,594.941699999995762],[2641798.5489999987185,1218722.344000000506639,594.741699999998673],[2641799.388999998569489,1218715.761,594.856700000003912],[2641799.723240890540183,1218713.138065521838143,594.86556566435047],[2641800.555598561186343,1218706.60964127862826,594.781531358179905],[2641801.068,1218702.594000000506639,594.684699999997974],[2641801.907000001519918,1218696.010000001639128,594.798699999999371],[2641799.609000001102686,1218692.75899999961257,594.598700000002282],[2641799.545000001788139,1218692.671999998390675,594.798699999999371],[2641797.381999999284744,1218694.1739999987185,594.798699999999371],[2641797.401000000536442,1218694.199000000953674,594.598700000002282],[2641789.19,1218683.597721069585532,596.095406163163034],[2641789.19,1218715.072408913634717,599.043438125967441]],[[2641789.451711375266314,1218700.800731046823785,597.494882242288782],[2641789.829,1218701.287000000476837,594.598700000002282],[2641796.263000000268221,1218709.594000000506639,594.865699999994831],[2641789.451711375266314,1218700.800731046823785,597.494882242288782]]]}},
{"type":"Feature","properties":{"fid":229,"OBJECTID":1,"UUID":"{0241BDAF-FECA-476C-BB76-2B1614C5FEC1}","OBJEKTART":"Gebaeude Einzelhaus","NAME_KOMPLETT":null,"GEBAEUDE_NUTZUNG":null,"GRUND_AENDERUNG":"Verbessert","HERKUNFT":"swisstopo","HERKUNFT_JAHR":2024,"HERKUNFT_MONAT":6,"ORIGINAL_HERKUNFT":"swisstopo","ERSTELLUNG_JAHR":2024,"ERSTELLUNG_MONAT":6,"REVISION_JAHR":2024,"REVISION_MONAT":6,"DATUM_AENDERUNG":"2025-07-08T11:55:40Z","DATUM_ERSTELLUNG":"2025-07-08T11:55:40Z","DACH_MAX":571.05,"DACH_MIN":567.57,"EGID":187524,"GEBAEUDEEINHEIT":"{0161A195-33E8-41ED-A8F7-CD5593D4FBF9}","layer":"swissbuildings3d_3_0_2024_1129-33_2056_5728.gdb — swissBUILDINGS3D_3-0_1129-33.gdb/a0000000b.gdbtable","path":"/vsizip//Users/wulf/Downloads/swissbuildings3d_3_0_2024_1129-33_2056_5728.gdb.zip/swissBUILDINGS3D_3-0_1129-33.gdb/a0000000b.gdbtable|layername=Roof_solid"},"geometry":{"type":"Polygon","coordinates":[[[2641789.19,1218379.881781939417124,625.784199999994598],[2641789.894000001251698,1218379.809999998658895,625.784199999994598],[2641789.19,1218372.906328419456258,625.675137257829988],[2641789.19,1218379.881781939417124,625.784199999994598]]]}},
{"type":"Feature","properties":{"fid":230,"OBJECTID":1,"UUID":"{0241BDAF-FECA-476C-BB76-2B1614C5FEC1}","OBJEKTART":"Gebaeude Einzelhaus","NAME_KOMPLETT":null,"GEBAEUDE_NUTZUNG":null,"GRUND_AENDERUNG":"Verbessert","HERKUNFT":"swisstopo","HERKUNFT_JAHR":2024,"HERKUNFT_MONAT":6,"ORIGINAL_HERKUNFT":"swisstopo","ERSTELLUNG_JAHR":2024,"ERSTELLUNG_MONAT":6,"REVISION_JAHR":2024,"REVISION_MONAT":6,"DATUM_AENDERUNG":"2025-07-08T11:55:40Z","DATUM_ERSTELLUNG":"2025-07-08T11:55:40Z","DACH_MAX":571.05,"DACH_MIN":567.57,"EGID":187524,"GEBAEUDEEINHEIT":"{0161A195-33E8-41ED-A8F7-CD5593D4FBF9}","layer":"swissbuildings3d_3_0_2024_1129-33_2056_5728.gdb — swissBUILDINGS3D_3-0_1129-33.gdb/a0000000b.gdbtable","path":"/vsizip//Users/wulf/Downloads/swissbuildings3d_3_0_2024_1129-33_2056_5728.gdb.zip/swissBUILDINGS3D_3-0_1129-33.gdb/a0000000b.gdbtable|layername=Roof_solid"},"geometry":{"type":"Polygon","coordinates":[[[2641789.19,1218410.567629874218255,621.467666010748644],[2641793.607999999076128,1218410.160999998450279,621.54670000000624],[2641793.212000001221895,1218405.846999999135733,623.751399999993737],[2641793.155000001192093,1218405.230000000447035,624.038400000004913],[2641793.079,1218404.409000001847744,624.686300000001211],[2641792.58500000089407,1218399.030000001192093,621.933600000003935],[2641792.550000000745058,1218398.651999998837709,621.590599999995902],[2641792.515000000596046,1218398.274000000208616,621.346699999994598],[2641789.19,1218398.580030858749524,621.406181216469349],[2641789.19,1218410.567629874218255,621.467666010748644]]]}},
{"type":"Feature","properties":{"fid":232,"OBJECTID":1,"UUID":"{0241BDAF-FECA-476C-BB76-2B1614C5FEC1}","OBJEKTART":"Gebaeude Einzelhaus","NAME_KOMPLETT":null,"GEBAEUDE_NUTZUNG":null,"GRUND_AENDERUNG":"Verbessert","HERKUNFT":"swisstopo","HERKUNFT_JAHR":2024,"HERKUNFT_MONAT":6,"ORIGINAL_HERKUNFT":"swisstopo","ERSTELLUNG_JAHR":2024,"ERSTELLUNG_MONAT":6,"REVISION_JAHR":2024,"REVISION_MONAT":6,"DATUM_AENDERUNG":"2025-07-08T11:55:40Z","DATUM_ERSTELLUNG":"2025-07-08T11:55:40Z","DACH_MAX":571.05,"DACH_MIN":567.57,"EGID":187524,"GEBAEUDEEINHEIT":"{0161A195-33E8-41ED-A8F7-CD5593D4FBF9}","layer":"swissbuildings3d_3_0_2024_1129-33_2056_5728.gdb — swissBUILDINGS3D_3-0_1129-33.gdb/a0000000b.gdbtable","path":"/vsizip//Users/wulf/Downloads/swissbuildings3d_3_0_2024_1129-33_2056_5728.gdb.zip/swissBUILDINGS3D_3-0_1129-33.gdb/a0000000b.gdbtable|layername=Roof_solid"},"geometry":{"type":"Polygon","coordinates":[[[2641789.19,1218801.540813277941197,597.273499999995693],[2641820.175000000745058,1218810.732999999076128,597.273499999995693],[2641820.402320615481585,1218809.966812812490389,593.07445],[2641829.245000001043081,1218812.589999999850988,588.875400000004447],[2641826.839856847655028,1218823.095483763376251,589.931951280439989],[2641820.133000001311302,1218821.585999999195337,585.044800000003306],[2641814.818799928296357,1218845.436680305283517,584.449850000004517],[2641813.084042510483414,1218848.034936327952892,583.984940631679251],[2641812.800000000745058,1218847.8260000012815,584.111900000003516],[2641809.925999999046326,1218851.736000001430511,584.111900000003516],[2641810.143892584368587,1218851.896135597955436,583.925273612305318],[2641809.050000000745058,1218853.276999998837709,583.536999999996624],[2641807.437969372142106,1218855.31,582.161425365797527],[2641809.772846084088087,1218855.31,581.822199999995064],[2641810.885000001639128,1218853.907000001519918,581.822199999995064],[2641810.64759425399825,1218853.718471906380728,583.17372977438481],[2641811.375,1218852.800999999046326,584.668900000004214],[2641812.083000000566244,1218853.320999998599291,584.111900000003516],[2641814.956999998539686,1218849.410999998450279,583.911900000006426],[2641814.229159701615572,1218848.87711714534089,584.811555304213471],[2641815.205313063692302,1218847.414313185494393,585.305288862451789],[2641824.311999998986721,1218849.427999999374151,593.805900000006659],[2641826.556000001728535,1218849.925000000745058,593.805900000006659],[2641836.671,1218852.162000000476837,585.044800000003306],[2641842.368000000715256,1218826.589999999850988,585.044800000003306],[2641832.261999998241663,1218824.315999999642372,593.805900000006659],[2641830.019000001251698,1218823.811000000685453,593.605899999995017],[2641829.432935236487538,1218823.679096895037219,591.156730265077613],[2641832.991688372101635,1218808.134085475699976,591.228698689619932],[2641844.526999998837709,1218811.556000001728535,593.779899999994086],[2641850.730999998748302,1218790.647999998182058,593.779899999994086],[2641817.427999999374151,1218780.76799999922514,593.579899999996996],[2641815.690999999642372,1218786.618000000715256,593.579899999996996],[2641826.388000000268221,1218789.791999999433756,593.779899999994086],[2641815.625999998301268,1218786.598999999463558,597.273499999995693],[2641791.969999998807907,1218779.58500000089407,597.273499999995693],[2641791.897999998182058,1218779.559999998658895,597.273499999995693],[2641789.19,1218788.687350387685001,597.273499999995693],[2641789.19,1218801.540813277941197,597.273499999995693]],[[2641821.921,1218804.850000001490116,593.779899999994086],[2641820.445999998599291,1218809.820999998599291,588.675399999992806],[2641820.44561594678089,1218809.820885316468775,592.974449999994249],[2641826.388000000268221,1218789.791999999433756,593.779899999994086],[2641821.921,1218804.850000001490116,593.779899999994086]],[[2641814.046224313322455,1218848.742323638638481,584.785785122027164],[2641814.091352316085249,1218848.775449984474108,584.835701053687671],[2641813.927000001072884,1218848.655000001192093,584.955799999996088],[2641813.800493821501732,1218848.561944435350597,584.824438902785232],[2641814.046224313322455,1218848.742323638638481,584.785785122027164]]]}},
{"type":"Feature","properties":{"fid":233,"OBJECTID":1,"UUID":"{0241BDAF-FECA-476C-BB76-2B1614C5FEC1}","OBJEKTART":"Gebaeude Einzelhaus","NAME_KOMPLETT":null,"GEBAEUDE_NUTZUNG":null,"GRUND_AENDERUNG":"Verbessert","HERKUNFT":"swisstopo","HERKUNFT_JAHR":2024,"HERKUNFT_MONAT":6,"ORIGINAL_HERKUNFT":"swisstopo","ERSTELLUNG_JAHR":2024,"ERSTELLUNG_MONAT":6,"REVISION_JAHR":2024,"REVISION_MONAT":6,"DATUM_AENDERUNG":"2025-07-08T11:55:40Z","DATUM_ERSTELLUNG":"2025-07-08T11:55:40Z","DACH_MAX":571.05,"DACH_MIN":567.57,"EGID":187524,"GEBAEUDEEINHEIT":"{0161A195-33E8-41ED-A8F7-CD5593D4FBF9}","layer":"swissbuildings3d_3_0_2024_1129-33_2056_5728.gdb — swissBUILDINGS3D_3-0_1129-33.gdb/a0000000b.gdbtable","path":"/vsizip//Users/wulf/Downloads/swissbuildings3d_3_0_2024_1129-33_2056_5728.gdb.zip/swissBUILDINGS3D_3-0_1129-33.gdb/a0000000b.gdbtable|layername=Roof_solid"},"geometry":{"type":"Polygon","coordinates":[[[2641820.725999999791384,1218402.008000001311302,619.694799999997485],[2641820.087999999523163,1218395.557,619.694799999997485],[2641808.7010000012815,1218396.68299999833107,619.894799999994575],[2641808.90332094905898,1218398.590316895162687,621.240674523806319],[2641807.396000001579523,1218398.739,622.803499999994528],[2641804.588691805955023,1218399.016893175896257,621.201020770143714],[2641801.24100000038743,1218399.348000001162291,619.894799999994575],[2641802.147999998182058,1218408.51799999922514,619.694799999997485],[2641806.627000000327826,1218408.074999999254942,619.694799999997485],[2641806.626993261277676,1218408.074932187097147,621.30878966889361],[2641816.910999998450279,1218407.05799999833107,622.743499999996857],[2641816.910956894978881,1218407.057563757058233,621.216546423590898],[2641816.947000000625849,1218407.054000001400709,619.694799999997485],[2641816.583999998867512,1218402.418000001460314,619.694799999997485],[2641820.725999999791384,1218402.008000001311302,619.694799999997485]]]}},
{"type":"Feature","properties":{"fid":234,"OBJECTID":1,"UUID":"{0241BDAF-FECA-476C-BB76-2B1614C5FEC1}","OBJEKTART":"Gebaeude Einzelhaus","NAME_KOMPLETT":null,"GEBAEUDE_NUTZUNG":null,"GRUND_AENDERUNG":"Verbessert","HERKUNFT":"swisstopo","HERKUNFT_JAHR":2024,"HERKUNFT_MONAT":6,"ORIGINAL_HERKUNFT":"swisstopo","ERSTELLUNG_JAHR":2024,"ERSTELLUNG_MONAT":6,"REVISION_JAHR":2024,"REVISION_MONAT":6,"DATUM_AENDERUNG":"2025-07-08T11:55:40Z","DATUM_ERSTELLUNG":"2025-07-08T11:55:40Z","DACH_MAX":571.05,"DACH_MIN":567.57,"EGID":187524,"GEBAEUDEEINHEIT":"{0161A195-33E8-41ED-A8F7-CD5593D4FBF9}","layer":"swissbuildings3d_3_0_2024_1129-33_2056_5728.gdb — swissBUILDINGS3D_3-0_1129-33.gdb/a0000000b.gdbtable","path":"/vsizip//Users/wulf/Downloads/swissbuildings3d_3_0_2024_1129-33_2056_5728.gdb.zip/swissBUILDINGS3D_3-0_1129-33.gdb/a0000000b.gdbtable|layername=Roof_solid"},"geometry":{"type":"Polygon","coordinates":[[[2641812.896000001579523,1218366.359000001102686,625.742199999993318],[2641801.728999998420477,1218367.473000001162291,625.742199999993318],[2641802.824000000953674,1218378.467999998480082,625.942200000004959],[2641813.993000000715256,1218377.355000000447035,625.942200000004959],[2641812.896000001579523,1218366.359000001102686,625.742199999993318]]]}},
{"type":"Feature","properties":{"fid":235,"OBJECTID":1,"UUID":"{0241BDAF-FECA-476C-BB76-2B1614C5FEC1}","OBJEKTART":"Gebaeude Einzelhaus","NAME_KOMPLETT":null,"GEBAEUDE_NUTZUNG":null,"GRUND_AENDERUNG":"Verbessert","HERKUNFT":"swisstopo","HERKUNFT_JAHR":2024,"HERKUNFT_MONAT":6,"ORIGINAL_HERKUNFT":"swisstopo","ERSTELLUNG_JAHR":2024,"ERSTELLUNG_MONAT":6,"REVISION_JAHR":2024,"REVISION_MONAT":6,"DATUM_AENDERUNG":"2025-07-08T11:55:40Z","DATUM_ERSTELLUNG":"2025-07-08T11:55:40Z","DACH_MAX":571.05,"DACH_MIN":567.57,"EGID":187524,"GEBAEUDEEINHEIT":"{0161A195-33E8-41ED-A8F7-CD5593D4FBF9}","layer":"swissbuildings3d_3_0_2024_1129-33_2056_5728.gdb — swissBUILDINGS3D_3-0_1129-33.gdb/a0000000b.gdbtable","path":"/vsizip//Users/wulf/Downloads/swissbuildings3d_3_0_2024_1129-33_2056_5728.gdb.zip/swissBUILDINGS3D_3-0_1129-33.gdb/a0000000b.gdbtable|layername=Roof_solid"},"geometry":{"type":"Polygon","coordinates":[[[2641811.505179294385016,1218479.841022762469947,615.165891023837048],[2641811.504999998956919,1218479.840999998152256,620.34780000000319],[2641806.782999999821186,1218517.019999999552965,620.147899999996298],[2641821.761999998241663,1218518.916000001132488,620.347899999993388],[2641821.984999999403954,1218518.949999999254942,620.347899999993388],[2641826.549817185848951,1218483.000976883806288,615.235850603472727],[2641826.550000000745058,1218483.000999998301268,610.12390000000596],[2641827.745999999344349,1218473.583000000566244,609.923899999994319],[2641827.585999999195337,1218473.557,610.122900000002119],[2641816.304999999701977,1218472.127999998629093,609.973899999997229],[2641812.631000000983477,1218471.662999998778105,609.94090000000142],[2641812.545000001788139,1218471.651999998837709,609.989900000000489],[2641811.505179294385016,1218479.841022762469947,615.165891023837048]],[[2641826.533979530911893,1218481.74915936565958,615.205165947459705],[2641811.664960254449397,1218479.861309404950589,615.06937515476443],[2641811.66499999910593,1218479.861000001430511,609.790900000007241],[2641826.534000001847744,1218481.749000001698732,609.921900000001187],[2641826.533979530911893,1218481.74915936565958,615.205165947459705]]]}},
{"type":"Feature","properties":{"fid":236,"OBJECTID":1,"UUID":"{0241BDAF-FECA-476C-BB76-2B1614C5FEC1}","OBJEKTART":"Gebaeude Einzelhaus","NAME_KOMPLETT":null,"GEBAEUDE_NUTZUNG":null,"GRUND_AENDERUNG":"Verbessert","HERKUNFT":"swisstopo","HERKUNFT_JAHR":2024,"HERKUNFT_MONAT":6,"ORIGINAL_HERKUNFT":"swisstopo","ERSTELLUNG_JAHR":2024,"ERSTELLUNG_MONAT":6,"REVISION_JAHR":2024,"REVISION_MONAT":6,"DATUM_AENDERUNG":"2025-07-08T11:55:40Z","DATUM_ERSTELLUNG":"2025-07-08T11:55:40Z","DACH_MAX":571.05,"DACH_MIN":567.57,"EGID":187524,"GEBAEUDEEINHEIT":"{0161A195-33E8-41ED-A8F7-CD5593D4FBF9}","layer":"swissbuildings3d_3_0_2024_1129-33_2056_5728.gdb — swissBUILDINGS3D_3-0_1129-33.gdb/a0000000b.gdbtable","path":"/vsizip//Users/wulf/Downloads/swissbuildings3d_3_0_2024_1129-33_2056_5728.gdb.zip/swissBUILDINGS3D_3-0_1129-33.gdb/a0000000b.gdbtable|layername=Roof_solid"},"geometry":{"type":"Polygon","coordinates":[[[2641833.230000000447035,1218360.964999999850988,626.177100000000792],[2641825.223000001162291,1218362.936000000685453,626.177100000000792],[2641828.464999999850988,1218376.113000001758337,625.9771999999939],[2641836.473000001162291,1218374.14299999922514,625.9771999999939],[2641833.230000000447035,1218360.964999999850988,626.177100000000792]]]}},
{"type":"Feature","properties":{"fid":237,"OBJECTID":1,"UUID":"{0241BDAF-FECA-476C-BB76-2B1614C5FEC1}","OBJEKTART":"Gebaeude Einzelhaus","NAME_KOMPLETT":null,"GEBAEUDE_NUTZUNG":null,"GRUND_AENDERUNG":"Verbessert","HERKUNFT":"swisstopo","HERKUNFT_JAHR":2024,"HERKUNFT_MONAT":6,"ORIGINAL_HERKUNFT":"swisstopo","ERSTELLUNG_JAHR":2024,"ERSTELLUNG_MONAT":6,"REVISION_JAHR":2024,"REVISION_MONAT":6,"DATUM_AENDERUNG":"2025-07-08T11:55:40Z","DATUM_ERSTELLUNG":"2025-07-08T11:55:40Z","DACH_MAX":571.05,"DACH_MIN":567.57,"EGID":187524,"GEBAEUDEEINHEIT":"{0161A195-33E8-41ED-A8F7-CD5593D4FBF9}","layer":"swissbuildings3d_3_0_2024_1129-33_2056_5728.gdb — swissBUILDINGS3D_3-0_1129-33.gdb/a0000000b.gdbtable","path":"/vsizip//Users/wulf/Downloads/swissbuildings3d_3_0_2024_1129-33_2056_5728.gdb.zip/swissBUILDINGS3D_3-0_1129-33.gdb/a0000000b.gdbtable|layername=Roof_solid"},"geometry":{"type":"Polygon","coordinates":[[[2641830.381000000983477,1218406.168999999761581,623.458400000003166],[2641838.125,1218404.144999999552965,623.258499999996275],[2641838.423000000417233,1218405.285000000149012,623.458400000003166],[2641845.840999998152256,1218403.346000000834465,623.258499999996275],[2641844.604132354259491,1218398.614176605362445,621.079706105756713],[2641846.331000000238419,1218398.162999998778105,620.333799999993062],[2641844.647999998182058,1218391.739999998360872,620.333700000002864],[2641836.223000001162291,1218393.936999998986721,620.333799999993062],[2641836.450336403679103,1218394.80640019942075,621.837356743232931],[2641827.989,1218397.01799999922514,623.458400000003166],[2641830.381000000983477,1218406.168999999761581,623.458400000003166]],[[2641838.976059343200177,1218394.146233994048089,621.896099999998114],[2641838.975999999791384,1218394.146000001579523,620.333799999993062],[2641843.151000000536442,1218393.054999999701977,620.133799999995972],[2641838.976059343200177,1218394.146233994048089,621.896099999998114]],[[2641844.543000001460314,1218398.379999998956919,620.133799999995972],[2641844.542925125919282,1218398.380019137635827,621.114938807833823],[2641843.151000000536442,1218393.054999999701977,620.133799999995972],[2641844.543000001460314,1218398.379999998956919,620.133799999995972]]]}},
{"type":"Feature","properties":{"fid":238,"OBJECTID":1,"UUID":"{0241BDAF-FECA-476C-BB76-2B1614C5FEC1}","OBJEKTART":"Gebaeude Einzelhaus","NAME_KOMPLETT":null,"GEBAEUDE_NUTZUNG":null,"GRUND_AENDERUNG":"Verbessert","HERKUNFT":"swisstopo","HERKUNFT_JAHR":2024,"HERKUNFT_MONAT":6,"ORIGINAL_HERKUNFT":"swisstopo","ERSTELLUNG_JAHR":2024,"ERSTELLUNG_MONAT":6,"REVISION_JAHR":2024,"REVISION_MONAT":6,"DATUM_AENDERUNG":"2025-07-08T11:55:40Z","DATUM_ERSTELLUNG":"2025-07-08T11:55:40Z","DACH_MAX":571.05,"DACH_MIN":567.57,"EGID":187524,"GEBAEUDEEINHEIT":"{0161A195-33E8-41ED-A8F7-CD5593D4FBF9}","layer":"swissbuildings3d_3_0_2024_1129-33_2056_5728.gdb — swissBUILDINGS3D_3-0_1129-33.gdb/a0000000b.gdbtable","path":"/vsizip//Users/wulf/Downloads/swissbuildings3d_3_0_2024_1129-33_2056_5728.gdb.zip/swissBUILDINGS3D_3-0_1129-33.gdb/a0000000b.gdbtable|layername=Roof_solid"},"geometry":{"type":"Polygon","coordinates":[[[2641852.094000000506639,1218557.918999999761581,600.583899999997811],[2641811.105999998748302,1218552.806000001728535,602.197799999994459],[2641810.605000000447035,1218556.822999998927116,602.197799999994459],[2641851.592999998480082,1218561.936000000685453,600.583899999997811],[2641852.094000000506639,1218557.918999999761581,600.583899999997811]]]}},
{"type":"Feature","properties":{"fid":239,"OBJECTID":1,"UUID":"{0241BDAF-FECA-476C-BB76-2B1614C5FEC1}","OBJEKTART":"Gebaeude Einzelhaus","NAME_KOMPLETT":null,"GEBAEUDE_NUTZUNG":null,"GRUND_AENDERUNG":"Verbessert","HERKUNFT":"swisstopo","HERKUNFT_JAHR":2024,"HERKUNFT_MONAT":6,"ORIGINAL_HERKUNFT":"swisstopo","ERSTELLUNG_JAHR":2024,"ERSTELLUNG_MONAT":6,"REVISION_JAHR":2024,"REVISION_MONAT":6,"DATUM_AENDERUNG":"2025-07-08T11:55:40Z","DATUM_ERSTELLUNG":"2025-07-08T11:55:40Z","DACH_MAX":571.05,"DACH_MIN":567.57,"EGID":187524,"GEBAEUDEEINHEIT":"{0161A195-33E8-41ED-A8F7-CD5593D4FBF9}","layer":"swissbuildings3d_3_0_2024_1129-33_2056_5728.gdb — swissBUILDINGS3D_3-0_1129-33.gdb/a0000000b.gdbtable","path":"/vsizip//Users/wulf/Downloads/swissbuildings3d_3_0_2024_1129-33_2056_5728.gdb.zip/swissBUILDINGS3D_3-0_1129-33.gdb/a0000000b.gdbtable|layername=Roof_solid"},"geometry":{"type":"Polygon","coordinates":[[[2641829.864,1218610.011999998241663,598.626199999998789],[2641828.760157965123653,1218618.82099965470843,599.231055453773592],[2641828.339000001549721,1218618.76799999922514,598.492199999993318],[2641827.94200000166893,1218621.929999999701977,598.492199999993318],[2641871.346000000834465,1218627.368999999016523,598.492199999993318],[2641872.809999998658895,1218615.681000001728535,598.692200000004959],[2641866.665598053485155,1218614.910966271534562,598.727095438091169],[2641866.7010000012815,1218614.627999998629093,598.826199999995879],[2641829.864,1218610.011999998241663,598.626199999998789]]]}},
{"type":"Feature","properties":{"fid":240,"OBJECTID":1,"UUID":"{0241BDAF-FECA-476C-BB76-2B1614C5FEC1}","OBJEKTART":"Gebaeude Einzelhaus","NAME_KOMPLETT":null,"GEBAEUDE_NUTZUNG":null,"GRUND_AENDERUNG":"Verbessert","HERKUNFT":"swisstopo","HERKUNFT_JAHR":2024,"HERKUNFT_MONAT":6,"ORIGINAL_HERKUNFT":"swisstopo","ERSTELLUNG_JAHR":2024,"ERSTELLUNG_MONAT":6,"REVISION_JAHR":2024,"REVISION_MONAT":6,"DATUM_AENDERUNG":"2025-07-08T11:55:40Z","DATUM_ERSTELLUNG":"2025-07-08T11:55:40Z","DACH_MAX":571.05,"DACH_MIN":567.57,"EGID":187524,"GEBAEUDEEINHEIT":"{0161A195-33E8-41ED-A8F7-CD5593D4FBF9}","layer":"swissbuildings3d_3_0_2024_1129-33_2056_5728.gdb — swissBUILDINGS3D_3-0_1129-33.gdb/a0000000b.gdbtable","path":"/vsizip//Users/wulf/Downloads/swissbuildings3d_3_0_2024_1129-33_2056_5728.gdb.zip/swissBUILDINGS3D_3-0_1129-33.gdb/a0000000b.gdbtable|layername=Roof_solid"},"geometry":{"type":"Polygon","coordinates":[[[2641850.364999998360872,1218371.809000000357628,627.648000000001048],[2641860.787999998778105,1218369.245000001043081,626.114100000006147],[2641857.447999998927116,1218355.670000001788139,626.314100000003236],[2641847.024999998509884,1218358.234000001102686,627.648000000001048],[2641850.364999998360872,1218371.809000000357628,627.648000000001048]]]}},
{"type":"Feature","properties":{"fid":241,"OBJECTID":1,"UUID":"{0241BDAF-FECA-476C-BB76-2B1614C5FEC1}","OBJEKTART":"Gebaeude Einzelhaus","NAME_KOMPLETT":null,"GEBAEUDE_NUTZUNG":null,"GRUND_AENDERUNG":"Verbessert","HERKUNFT":"swisstopo","HERKUNFT_JAHR":2024,"HERKUNFT_MONAT":6,"ORIGINAL_HERKUNFT":"swisstopo","ERSTELLUNG_JAHR":2024,"ERSTELLUNG_MONAT":6,"REVISION_JAHR":2024,"REVISION_MONAT":6,"DATUM_AENDERUNG":"2025-07-08T11:55:40Z","DATUM_ERSTELLUNG":"2025-07-08T11:55:40Z","DACH_MAX":571.05,"DACH_MIN":567.57,"EGID":187524,"GEBAEUDEEINHEIT":"{0161A195-33E8-41ED-A8F7-CD5593D4FBF9}","layer":"swissbuildings3d_3_0_2024_1129-33_2056_5728.gdb — swissBUILDINGS3D_3-0_1129-33.gdb/a0000000b.gdbtable","path":"/vsizip//Users/wulf/Downloads/swissbuildings3d_3_0_2024_1129-33_2056_5728.gdb.zip/swissBUILDINGS3D_3-0_1129-33.gdb/a0000000b.gdbtable|layername=Roof_solid"},"geometry":{"type":"Polygon","coordinates":[[[2641864.905999999493361,1218386.228000000119209,623.724400000006426],[2641857.028000000864267,1218388.322999998927116,623.524399999994785],[2641860.11600000038743,1218399.938999999314547,623.524399999994785],[2641871.883000001311302,1218396.809999998658895,623.724400000006426],[2641871.111000001430511,1218393.905999999493361,623.674400000003516],[2641870.339000001549721,1218391.002000000327826,623.674400000003516],[2641868.793999999761581,1218385.193999998271465,623.524399999994785],[2641865.853000000119209,1218385.975999999791384,623.674400000003516],[2641864.905999999493361,1218386.228000000119209,623.724400000006426]]]}},
{"type":"Feature","properties":{"fid":242,"OBJECTID":1,"UUID":"{0241BDAF-FECA-476C-BB76-2B1614C5FEC1}","OBJEKTART":"Gebaeude Einzelhaus","NAME_KOMPLETT":null,"GEBAEUDE_NUTZUNG":null,"GRUND_AENDERUNG":"Verbessert","HERKUNFT":"swisstopo","HERKUNFT_JAHR":2024,"HERKUNFT_MONAT":6,"ORIGINAL_HERKUNFT":"swisstopo","ERSTELLUNG_JAHR":2024,"ERSTELLUNG_MONAT":6,"REVISION_JAHR":2024,"REVISION_MONAT":6,"DATUM_AENDERUNG":"2025-07-08T11:55:40Z","DATUM_ERSTELLUNG":"2025-07-08T11:55:40Z","DACH_MAX":571.05,"DACH_MIN":567.57,"EGID":187524,"GEBAEUDEEINHEIT":"{0161A195-33E8-41ED-A8F7-CD5593D4FBF9}","layer":"swissbuildings3d_3_0_2024_1129-33_2056_5728.gdb — swissBUILDINGS3D_3-0_1129-33.gdb/a0000000b.gdbtable","path":"/vsizip//Users/wulf/Downloads/swissbuildings3d_3_0_2024_1129-33_2056_5728.gdb.zip/swissBUILDINGS3D_3-0_1129-33.gdb/a0000000b.gdbtable|layername=Roof_solid"},"geometry":{"type":"Polygon","coordinates":[[[2641886.721999999135733,1218568.344999998807907,608.694099999993341],[2641846.022999998182058,1218563.35700000077486,608.694099999993341],[2641842.607999999076128,1218591.155000001192093,608.694099999993341],[2641883.285000000149012,1218596.140999998897314,608.694099999993341],[2641886.721999999135733,1218568.344999998807907,608.694099999993341]]]}},
{"type":"Feature","properties":{"fid":243,"OBJECTID":1,"UUID":"{0241BDAF-FECA-476C-BB76-2B1614C5FEC1}","OBJEKTART":"Gebaeude Einzelhaus","NAME_KOMPLETT":null,"GEBAEUDE_NUTZUNG":null,"GRUND_AENDERUNG":"Verbessert","HERKUNFT":"swisstopo","HERKUNFT_JAHR":2024,"HERKUNFT_MONAT":6,"ORIGINAL_HERKUNFT":"swisstopo","ERSTELLUNG_JAHR":2024,"ERSTELLUNG_MONAT":6,"REVISION_JAHR":2024,"REVISION_MONAT":6,"DATUM_AENDERUNG":"2025-07-08T11:55:40Z","DATUM_ERSTELLUNG":"2025-07-08T11:55:40Z","DACH_MAX":571.05,"DACH_MIN":567.57,"EGID":187524,"GEBAEUDEEINHEIT":"{0161A195-33E8-41ED-A8F7-CD5593D4FBF9}","layer":"swissbuildings3d_3_0_2024_1129-33_2056_5728.gdb — swissBUILDINGS3D_3-0_1129-33.gdb/a0000000b.gdbtable","path":"/vsizip//Users/wulf/Downloads/swissbuildings3d_3_0_2024_1129-33_2056_5728.gdb.zip/swissBUILDINGS3D_3-0_1129-33.gdb/a0000000b.gdbtable|layername=Roof_solid"},"geometry":{"type":"Polygon","coordinates":[[[2641887.519999999552965,1218816.061999998986721,588.999400000000605],[2641891.679999999701977,1218802.022999998182058,592.611999999993714],[2641891.923461067955941,1218802.095235701650381,593.864369204516038],[2641891.425000000745058,1218803.776999998837709,594.906700000006822],[2641889.346000000834465,1218810.793999999761581,593.225900000004913],[2641911.219999998807907,1218817.276000000536442,593.375899999999092],[2641916.105035861488432,1218818.723467657342553,593.378569428312403],[2641933.094999998807907,1218823.758000001311302,593.425900000002002],[2641935.868000000715256,1218814.403000000864267,595.266699999992852],[2641927.47383145429194,1218811.915448110550642,593.104401558352492],[2641930.171999998390675,1218812.714999999850988,592.620999999999185],[2641930.199999999254942,1218812.620999999344349,592.593999999997322],[2641930.864999998360872,1218810.372000001370907,593.19090000000142],[2641932.254000000655651,1218805.673000000417233,594.333799999993062],[2641932.902190639171749,1218803.479123989120126,595.758019809397183],[2641938.603999998420477,1218805.168999999761581,596.67949999999837],[2641941.43299999833107,1218795.622999999672174,595.78059999999823],[2641937.087311849929392,1218794.335310126189142,595.766693193072115],[2641897.50217169104144,1218782.604574635392055,595.627535644256],[2641892.269999999552965,1218781.054000001400709,595.630600000004051],[2641875.883000001311302,1218776.197999998927116,595.78059999999823],[2641873.052999999374151,1218785.743999999016523,596.87949999999546],[2641875.908606112468988,1218786.590157144004479,595.466629638772133],[2641868.81700000166893,1218810.519999999552965,589.199299999992945],[2641887.519999999552965,1218816.061999998986721,588.999400000000605]],[[2641892.118000000715256,1218801.438000001013279,595.466700000004494],[2641911.127000000327826,1218807.070999998599291,592.771999999997206],[2641917.779296051710844,1218809.042541790753603,594.060311769031273],[2641892.118000000715256,1218801.438000001013279,595.466700000004494]]]}},
{"type":"Feature","properties":{"fid":244,"OBJECTID":1,"UUID":"{0241BDAF-FECA-476C-BB76-2B1614C5FEC1}","OBJEKTART":"Gebaeude Einzelhaus","NAME_KOMPLETT":null,"GEBAEUDE_NUTZUNG":null,"GRUND_AENDERUNG":"Verbessert","HERKUNFT":"swisstopo","HERKUNFT_JAHR":2024,"HERKUNFT_MONAT":6,"ORIGINAL_HERKUNFT":"swisstopo","ERSTELLUNG_JAHR":2024,"ERSTELLUNG_MONAT":6,"REVISION_JAHR":2024,"REVISION_MONAT":6,"DATUM_AENDERUNG":"2025-07-08T11:55:40Z","DATUM_ERSTELLUNG":"2025-07-08T11:55:40Z","DACH_MAX":571.05,"DACH_MIN":567.57,"EGID":187524,"GEBAEUDEEINHEIT":"{0161A195-33E8-41ED-A8F7-CD5593D4FBF9}","layer":"swissbuildings3d_3_0_2024_1129-33_2056_5728.gdb — swissBUILDINGS3D_3-0_1129-33.gdb/a0000000b.gdbtable","path":"/vsizip//Users/wulf/Downloads/swissbuildings3d_3_0_2024_1129-33_2056_5728.gdb.zip/swissBUILDINGS3D_3-0_1129-33.gdb/a0000000b.gdbtable|layername=Roof_solid"},"geometry":{"type":"Polygon","coordinates":[[[2641895.882076166570187,1218855.31,595.330749697764986],[2641897.504999998956919,1218850.534000001847744,595.407699999996112],[2641896.643940451089293,1218850.241403151769191,588.913768073732513],[2641899.978000000119209,1218840.300999999046326,586.515599999998813],[2641881.88399999961257,1218835.532999999821186,586.627600000007078],[2641880.854257300961763,1218838.947963032638654,594.248180574348908],[2641873.840999998152256,1218838.032999999821186,602.019000000000233],[2641873.725931966677308,1218838.399399370420724,592.998686023899836],[2641858.427999999374151,1218834.655999999493361,585.543699999994715],[2641858.214999999850988,1218835.526000000536442,585.543699999994715],[2641873.456902947276831,1218839.256040974287316,590.312858865444014],[2641872.575612367596477,1218842.062244477681816,596.77542348404836],[2641872.035999998450279,1218841.879000000655651,595.207699999999022],[2641867.820000000298023,1218854.285999998450279,595.407699999996112],[2641870.833316700067371,1218855.31,595.384049208514284],[2641895.882076166570187,1218855.31,595.330749697764986]],[[2641880.379005832597613,1218844.71441184473224,597.067648784585344],[2641881.850999999791384,1218839.078000001609325,602.218999999997322],[2641881.431301879696548,1218839.023245377931744,594.32853967690744],[2641882.274000000208616,1218836.228999998420477,586.627600000007078],[2641899.238000001758337,1218840.699999999254942,586.715599999995902],[2641896.099624782800674,1218850.056439114967361,591.061649999996007],[2641880.379005832597613,1218844.71441184473224,597.067648784585344]]]}},
{"type":"Feature","properties":{"fid":245,"OBJECTID":1,"UUID":"{0241BDAF-FECA-476C-BB76-2B1614C5FEC1}","OBJEKTART":"Gebaeude Einzelhaus","NAME_KOMPLETT":null,"GEBAEUDE_NUTZUNG":null,"GRUND_AENDERUNG":"Verbessert","HERKUNFT":"swisstopo","HERKUNFT_JAHR":2024,"HERKUNFT_MONAT":6,"ORIGINAL_HERKUNFT":"swisstopo","ERSTELLUNG_JAHR":2024,"ERSTELLUNG_MONAT":6,"REVISION_JAHR":2024,"REVISION_MONAT":6,"DATUM_AENDERUNG":"2025-07-08T11:55:40Z","DATUM_ERSTELLUNG":"2025-07-08T11:55:40Z","DACH_MAX":571.05,"DACH_MIN":567.57,"EGID":187524,"GEBAEUDEEINHEIT":"{0161A195-33E8-41ED-A8F7-CD5593D4FBF9}","layer":"swissbuildings3d_3_0_2024_1129-33_2056_5728.gdb — swissBUILDINGS3D_3-0_1129-33.gdb/a0000000b.gdbtable","path":"/vsizip//Users/wulf/Downloads/swissbuildings3d_3_0_2024_1129-33_2056_5728.gdb.zip/swissBUILDINGS3D_3-0_1129-33.gdb/a0000000b.gdbtable|layername=Roof_solid"},"geometry":{"type":"Polygon","coordinates":[[[2641875.484000001102686,1218349.89299999922514,627.063999999998487],[2641873.721000000834465,1218350.370999999344349,627.235000000000582],[2641872.690999999642372,1218350.646999999880791,627.434999999997672],[2641871.956000000238419,1218350.842999998480082,627.557000000000698],[2641871.747000001370907,1218350.905999999493361,627.577000000004773],[2641875.456999998539686,1218364.602000001817942,627.577000000004773],[2641882.719999998807907,1218362.635000001639128,626.672099999996135],[2641879.011,1218348.938000001013279,626.672000000005937],[2641875.484000001102686,1218349.89299999922514,627.063999999998487]]]}},
{"type":"Feature","properties":{"fid":246,"OBJECTID":1,"UUID":"{0241BDAF-FECA-476C-BB76-2B1614C5FEC1}","OBJEKTART":"Gebaeude Einzelhaus","NAME_KOMPLETT":null,"GEBAEUDE_NUTZUNG":null,"GRUND_AENDERUNG":"Verbessert","HERKUNFT":"swisstopo","HERKUNFT_JAHR":2024,"HERKUNFT_MONAT":6,"ORIGINAL_HERKUNFT":"swisstopo","ERSTELLUNG_JAHR":2024,"ERSTELLUNG_MONAT":6,"REVISION_JAHR":2024,"REVISION_MONAT":6,"DATUM_AENDERUNG":"2025-07-08T11:55:40Z","DATUM_ERSTELLUNG":"2025-07-08T11:55:40Z","DACH_MAX":571.05,"DACH_MIN":567.57,"EGID":187524,"GEBAEUDEEINHEIT":"{0161A195-33E8-41ED-A8F7-CD5593D4FBF9}","layer":"swissbuildings3d_3_0_2024_1129-33_2056_5728.gdb — swissBUILDINGS3D_3-0_1129-33.gdb/a0000000b.gdbtable","path":"/vsizip//Users/wulf/Downloads/swissbuildings3d_3_0_2024_1129-33_2056_5728.gdb.zip/swissBUILDINGS3D_3-0_1129-33.gdb/a0000000b.gdbtable|layername=Roof_solid"},"geometry":{"type":"Polygon","coordinates":[[[2641915.122999999672174,1218628.271000001579523,599.955000000001746],[2641915.736000001430511,1218623.30799999833107,598.58520000000135],[2641900.824000000953674,1218621.464000001549721,598.385200000004261],[2641901.013999998569489,1218619.927999999374151,598.099199999996927],[2641895.234999999403954,1218619.214000001549721,598.099199999996927],[2641895.045000001788139,1218620.749000001698732,598.385200000004261],[2641884.238000001758337,1218619.412999998778105,598.58520000000135],[2641883.818405805155635,1218622.804605856304988,598.222683525659022],[2641881.346999999135733,1218622.445999998599291,596.787400000001071],[2641880.60700000077486,1218628.372000001370907,596.587400000003981],[2641883.091389637440443,1218628.681821911595762,597.718003320812613],[2641882.984000001102686,1218629.550000000745058,598.58520000000135],[2641914.482999999076128,1218633.445000000298023,598.58520000000135],[2641915.122999999672174,1218628.271000001579523,599.955000000001746]]]}},
{"type":"Feature","properties":{"fid":247,"OBJECTID":1,"UUID":"{0241BDAF-FECA-476C-BB76-2B1614C5FEC1}","OBJEKTART":"Gebaeude Einzelhaus","NAME_KOMPLETT":null,"GEBAEUDE_NUTZUNG":null,"GRUND_AENDERUNG":"Verbessert","HERKUNFT":"swisstopo","HERKUNFT_JAHR":2024,"HERKUNFT_MONAT":6,"ORIGINAL_HERKUNFT":"swisstopo","ERSTELLUNG_JAHR":2024,"ERSTELLUNG_MONAT":6,"REVISION_JAHR":2024,"REVISION_MONAT":6,"DATUM_AENDERUNG":"2025-07-08T11:55:40Z","DATUM_ERSTELLUNG":"2025-07-08T11:55:40Z","DACH_MAX":571.05,"DACH_MIN":567.57,"EGID":187524,"GEBAEUDEEINHEIT":"{0161A195-33E8-41ED-A8F7-CD5593D4FBF9}","layer":"swissbuildings3d_3_0_2024_1129-33_2056_5728.gdb — swissBUILDINGS3D_3-0_1129-33.gdb/a0000000b.gdbtable","path":"/vsizip//Users/wulf/Downloads/swissbuildings3d_3_0_2024_1129-33_2056_5728.gdb.zip/swissBUILDINGS3D_3-0_1129-33.gdb/a0000000b.gdbtable|layername=Roof_solid"},"geometry":{"type":"Polygon","coordinates":[[[2641914.208999998867512,1218652.035000000149012,601.023000000001048],[2641915.98200000077486,1218638.024999998509884,601.222899999993388],[2641915.842999998480082,1218638.00899999961257,601.222899999993388],[2641880.675999999046326,1218633.55799999833107,601.222899999993388],[2641878.901999998837709,1218647.565999999642372,601.222999999998137],[2641878.902499197050929,1218647.566063152160496,598.470249996653592],[2641878.092000000178814,1218653.964999999850988,595.717499999998836],[2641888.120999999344349,1218655.234000001102686,595.917499999995925],[2641888.931803645100445,1218648.835067620500922,598.37303133730768],[2641914.208999998867512,1218652.035000000149012,601.023000000001048]]]}},
{"type":"Feature","properties":{"fid":248,"OBJECTID":1,"UUID":"{0241BDAF-FECA-476C-BB76-2B1614C5FEC1}","OBJEKTART":"Gebaeude Einzelhaus","NAME_KOMPLETT":null,"GEBAEUDE_NUTZUNG":null,"GRUND_AENDERUNG":"Verbessert","HERKUNFT":"swisstopo","HERKUNFT_JAHR":2024,"HERKUNFT_MONAT":6,"ORIGINAL_HERKUNFT":"swisstopo","ERSTELLUNG_JAHR":2024,"ERSTELLUNG_MONAT":6,"REVISION_JAHR":2024,"REVISION_MONAT":6,"DATUM_AENDERUNG":"2025-07-08T11:55:40Z","DATUM_ERSTELLUNG":"2025-07-08T11:55:40Z","DACH_MAX":571.05,"DACH_MIN":567.57,"EGID":187524,"GEBAEUDEEINHEIT":"{0161A195-33E8-41ED-A8F7-CD5593D4FBF9}","layer":"swissbuildings3d_3_0_2024_1129-33_2056_5728.gdb — swissBUILDINGS3D_3-0_1129-33.gdb/a0000000b.gdbtable","path":"/vsizip//Users/wulf/Downloads/swissbuildings3d_3_0_2024_1129-33_2056_5728.gdb.zip/swissBUILDINGS3D_3-0_1129-33.gdb/a0000000b.gdbtable|layername=Roof_solid"},"geometry":{"type":"Polygon","coordinates":[[[2641898.214000001549721,1218345.41499999910593,627.213000000003376],[2641889.818999998271465,1218347.480000000447035,627.413000000000466],[2641891.725000001490116,1218355.23200000077486,627.413000000000466],[2641892.850000001490116,1218359.804999999701977,627.413000000000466],[2641901.245000001043081,1218357.739999998360872,627.413000000000466],[2641898.214000001549721,1218345.41499999910593,627.213000000003376]]]}},
{"type":"Feature","properties":{"fid":249,"OBJECTID":1,"UUID":"{0241BDAF-FECA-476C-BB76-2B1614C5FEC1}","OBJEKTART":"Gebaeude Einzelhaus","NAME_KOMPLETT":null,"GEBAEUDE_NUTZUNG":null,"GRUND_AENDERUNG":"Verbessert","HERKUNFT":"swisstopo","HERKUNFT_JAHR":2024,"HERKUNFT_MONAT":6,"ORIGINAL_HERKUNFT":"swisstopo","ERSTELLUNG_JAHR":2024,"ERSTELLUNG_MONAT":6,"REVISION_JAHR":2024,"REVISION_MONAT":6,"DATUM_AENDERUNG":"2025-07-08T11:55:40Z","DATUM_ERSTELLUNG":"2025-07-08T11:55:40Z","DACH_MAX":571.05,"DACH_MIN":567.57,"EGID":187524,"GEBAEUDEEINHEIT":"{0161A195-33E8-41ED-A8F7-CD5593D4FBF9}","layer":"swissbuildings3d_3_0_2024_1129-33_2056_5728.gdb — swissBUILDINGS3D_3-0_1129-33.gdb/a0000000b.gdbtable","path":"/vsizip//Users/wulf/Downloads/swissbuildings3d_3_0_2024_1129-33_2056_5728.gdb.zip/swissBUILDINGS3D_3-0_1129-33.gdb/a0000000b.gdbtable|layername=Roof_solid"},"geometry":{"type":"Polygon","coordinates":[[[2641884.118000000715256,1218383.7989999987185,624.388300000005984],[2641886.190000001341105,1218392.223999999463558,624.588300000003073],[2641897.686000000685453,1218389.394999999552965,624.588300000003073],[2641895.614999998360872,1218380.969999998807907,624.388300000005984],[2641884.118000000715256,1218383.7989999987185,624.388300000005984]]]}},
{"type":"Feature","properties":{"fid":250,"OBJECTID":1,"UUID":"{0241BDAF-FECA-476C-BB76-2B1614C5FEC1}","OBJEKTART":"Gebaeude Einzelhaus","NAME_KOMPLETT":null,"GEBAEUDE_NUTZUNG":null,"GRUND_AENDERUNG":"Verbessert","HERKUNFT":"swisstopo","HERKUNFT_JAHR":2024,"HERKUNFT_MONAT":6,"ORIGINAL_HERKUNFT":"swisstopo","ERSTELLUNG_JAHR":2024,"ERSTELLUNG_MONAT":6,"REVISION_JAHR":2024,"REVISION_MONAT":6,"DATUM_AENDERUNG":"2025-07-08T11:55:40Z","DATUM_ERSTELLUNG":"2025-07-08T11:55:40Z","DACH_MAX":571.05,"DACH_MIN":567.57,"EGID":187524,"GEBAEUDEEINHEIT":"{0161A195-33E8-41ED-A8F7-CD5593D4FBF9}","layer":"swissbuildings3d_3_0_2024_1129-33_2056_5728.gdb — swissBUILDINGS3D_3-0_1129-33.gdb/a0000000b.gdbtable","path":"/vsizip//Users/wulf/Downloads/swissbuildings3d_3_0_2024_1129-33_2056_5728.gdb.zip/swissBUILDINGS3D_3-0_1129-33.gdb/a0000000b.gdbtable|layername=Roof_solid"},"geometry":{"type":"Polygon","coordinates":[[[2641883.285000000149012,1218596.142000000923872,598.151199999992969],[2641904.188999999314547,1218598.704999998211861,598.151199999992969],[2641905.171999998390675,1218590.221000000834465,598.35120000000461],[2641910.025692845694721,1218590.815962348831818,602.129800000002433],[2641907.888000000268221,1218609.271999999880791,605.908400000000256],[2641942.513000000268221,1218613.465999998152256,605.908400000000256],[2641946.837999999523163,1218576.0489999987185,605.708400000003166],[2641912.236117733642459,1218571.733014684170485,602.129799659755577],[2641912.265999998897314,1218571.475000001490116,598.35120000000461],[2641886.721999999135733,1218568.344999998807907,608.694099999993341],[2641883.285000000149012,1218596.142000000923872,598.151199999992969]]]}},
{"type":"Feature","properties":{"fid":251,"OBJECTID":1,"UUID":"{0241BDAF-FECA-476C-BB76-2B1614C5FEC1}","OBJEKTART":"Gebaeude Einzelhaus","NAME_KOMPLETT":null,"GEBAEUDE_NUTZUNG":null,"GRUND_AENDERUNG":"Verbessert","HERKUNFT":"swisstopo","HERKUNFT_JAHR":2024,"HERKUNFT_MONAT":6,"ORIGINAL_HERKUNFT":"swisstopo","ERSTELLUNG_JAHR":2024,"ERSTELLUNG_MONAT":6,"REVISION_JAHR":2024,"REVISION_MONAT":6,"DATUM_AENDERUNG":"2025-07-08T11:55:40Z","DATUM_ERSTELLUNG":"2025-07-08T11:55:40Z","DACH_MAX":571.05,"DACH_MIN":567.57,"EGID":187524,"GEBAEUDEEINHEIT":"{0161A195-33E8-41ED-A8F7-CD5593D4FBF9}","layer":"swissbuildings3d_3_0_2024_1129-33_2056_5728.gdb — swissBUILDINGS3D_3-0_1129-33.gdb/a0000000b.gdbtable","path":"/vsizip//Users/wulf/Downloads/swissbuildings3d_3_0_2024_1129-33_2056_5728.gdb.zip/swissBUILDINGS3D_3-0_1129-33.gdb/a0000000b.gdbtable|layername=Roof_solid"},"geometry":{"type":"MultiPolygon","coordinates":[[[[2641913.695903901942074,1218339.81,624.880933143894822],[2641913.804000001400709,1218340.25,624.858200000002398],[2641915.592952734790742,1218339.81,624.858200000002398],[2641913.695903901942074,1218339.81,624.880933143894822]]],[[[2641915.593261276837438,1218339.81,626.132092378500602],[2641910.348999999463558,1218341.100000001490116,628.703800000002957],[2641913.488000001758337,1218353.868999999016523,628.703800000002957],[2641913.488470715470612,1218353.868884166004136,626.765836967187738],[2641913.664000000804663,1218354.583000000566244,624.858200000002398],[2641913.699999999254942,1218354.581000000238419,625.058199999999488],[2641915.539000000804663,1218354.122000001370907,625.058199999999488],[2641923.30799999833107,1218352.21000000089407,624.858200000002398],[2641920.258374552708119,1218339.81,625.001106534508153],[2641915.593261276837438,1218339.81,626.132092378500602]]]]}},
{"type":"Feature","properties":{"fid":252,"OBJECTID":1,"UUID":"{0241BDAF-FECA-476C-BB76-2B1614C5FEC1}","OBJEKTART":"Gebaeude Einzelhaus","NAME_KOMPLETT":null,"GEBAEUDE_NUTZUNG":null,"GRUND_AENDERUNG":"Verbessert","HERKUNFT":"swisstopo","HERKUNFT_JAHR":2024,"HERKUNFT_MONAT":6,"ORIGINAL_HERKUNFT":"swisstopo","ERSTELLUNG_JAHR":2024,"ERSTELLUNG_MONAT":6,"REVISION_JAHR":2024,"REVISION_MONAT":6,"DATUM_AENDERUNG":"2025-07-08T11:55:40Z","DATUM_ERSTELLUNG":"2025-07-08T11:55:40Z","DACH_MAX":571.05,"DACH_MIN":567.57,"EGID":187524,"GEBAEUDEEINHEIT":"{0161A195-33E8-41ED-A8F7-CD5593D4FBF9}","layer":"swissbuildings3d_3_0_2024_1129-33_2056_5728.gdb — swissBUILDINGS3D_3-0_1129-33.gdb/a0000000b.gdbtable","path":"/vsizip//Users/wulf/Downloads/swissbuildings3d_3_0_2024_1129-33_2056_5728.gdb.zip/swissBUILDINGS3D_3-0_1129-33.gdb/a0000000b.gdbtable|layername=Roof_solid"},"geometry":{"type":"Polygon","coordinates":[[[2641913.274000000208616,1218385.23200000077486,622.626499999998487],[2641913.353000000119209,1218385.550999999046326,622.426500000001397],[2641931.789000000804663,1218381.015999998897314,622.626499999998487],[2641929.122999999672174,1218370.1739999987185,622.426500000001397],[2641910.684999998658895,1218374.708999998867512,622.426500000001397],[2641911.352000001817942,1218377.420000001788139,622.476500000004307],[2641911.818,1218379.313999999314547,622.426500000001397],[2641913.274000000208616,1218385.23200000077486,622.626499999998487]]]}},
{"type":"Feature","properties":{"fid":253,"OBJECTID":1,"UUID":"{0241BDAF-FECA-476C-BB76-2B1614C5FEC1}","OBJEKTART":"Gebaeude Einzelhaus","NAME_KOMPLETT":null,"GEBAEUDE_NUTZUNG":null,"GRUND_AENDERUNG":"Verbessert","HERKUNFT":"swisstopo","HERKUNFT_JAHR":2024,"HERKUNFT_MONAT":6,"ORIGINAL_HERKUNFT":"swisstopo","ERSTELLUNG_JAHR":2024,"ERSTELLUNG_MONAT":6,"REVISION_JAHR":2024,"REVISION_MONAT":6,"DATUM_AENDERUNG":"2025-07-08T11:55:40Z","DATUM_ERSTELLUNG":"2025-07-08T11:55:40Z","DACH_MAX":571.05,"DACH_MIN":567.57,"EGID":187524,"GEBAEUDEEINHEIT":"{0161A195-33E8-41ED-A8F7-CD5593D4FBF9}","layer":"swissbuildings3d_3_0_2024_1129-33_2056_5728.gdb — swissBUILDINGS3D_3-0_1129-33.gdb/a0000000b.gdbtable","path":"/vsizip//Users/wulf/Downloads/swissbuildings3d_3_0_2024_1129-33_2056_5728.gdb.zip/swissBUILDINGS3D_3-0_1129-33.gdb/a0000000b.gdbtable|layername=Roof_solid"},"geometry":{"type":"Polygon","coordinates":[[[2641908.828000001609325,1218492.41499999910593,602.443700000003446],[2641908.785000000149012,1218493.022999998182058,602.443700000003446],[2641917.600000001490116,1218493.728999998420477,602.443700000003446],[2641918.120000001043081,1218487.256000000983477,602.443599999998696],[2641909.304000001400709,1218486.550000000745058,602.443599999998696],[2641908.897999998182058,1218491.613000001758337,602.443700000003446],[2641908.828000001609325,1218492.41499999910593,602.443700000003446]]]}},
{"type":"Feature","properties":{"fid":254,"OBJECTID":1,"UUID":"{0241BDAF-FECA-476C-BB76-2B1614C5FEC1}","OBJEKTART":"Gebaeude Einzelhaus","NAME_KOMPLETT":null,"GEBAEUDE_NUTZUNG":null,"GRUND_AENDERUNG":"Verbessert","HERKUNFT":"swisstopo","HERKUNFT_JAHR":2024,"HERKUNFT_MONAT":6,"ORIGINAL_HERKUNFT":"swisstopo","ERSTELLUNG_JAHR":2024,"ERSTELLUNG_MONAT":6,"REVISION_JAHR":2024,"REVISION_MONAT":6,"DATUM_AENDERUNG":"2025-07-08T11:55:40Z","DATUM_ERSTELLUNG":"2025-07-08T11:55:40Z","DACH_MAX":571.05,"DACH_MIN":567.57,"EGID":187524,"GEBAEUDEEINHEIT":"{0161A195-33E8-41ED-A8F7-CD5593D4FBF9}","layer":"swissbuildings3d_3_0_2024_1129-33_2056_5728.gdb — swissBUILDINGS3D_3-0_1129-33.gdb/a0000000b.gdbtable","path":"/vsizip//Users/wulf/Downloads/swissbuildings3d_3_0_2024_1129-33_2056_5728.gdb.zip/swissBUILDINGS3D_3-0_1129-33.gdb/a0000000b.gdbtable|layername=Roof_solid"},"geometry":{"type":"Polygon","coordinates":[[[2641928.864,1218627.875,598.534199999994598],[2641953.596999999135733,1218631.026000000536442,598.534199999994598],[2641954.563999999314547,1218623.436999998986721,598.73420000000624],[2641929.831000000238419,1218620.285999998450279,598.73420000000624],[2641928.864,1218627.875,598.534199999994598]]]}},
{"type":"Feature","properties":{"fid":255,"OBJECTID":1,"UUID":"{0241BDAF-FECA-476C-BB76-2B1614C5FEC1}","OBJEKTART":"Gebaeude Einzelhaus","NAME_KOMPLETT":null,"GEBAEUDE_NUTZUNG":null,"GRUND_AENDERUNG":"Verbessert","HERKUNFT":"swisstopo","HERKUNFT_JAHR":2024,"HERKUNFT_MONAT":6,"ORIGINAL_HERKUNFT":"swisstopo","ERSTELLUNG_JAHR":2024,"ERSTELLUNG_MONAT":6,"REVISION_JAHR":2024,"REVISION_MONAT":6,"DATUM_AENDERUNG":"2025-07-08T11:55:40Z","DATUM_ERSTELLUNG":"2025-07-08T11:55:40Z","DACH_MAX":571.05,"DACH_MIN":567.57,"EGID":187524,"GEBAEUDEEINHEIT":"{0161A195-33E8-41ED-A8F7-CD5593D4FBF9}","layer":"swissbuildings3d_3_0_2024_1129-33_2056_5728.gdb — swissBUILDINGS3D_3-0_1129-33.gdb/a0000000b.gdbtable","path":"/vsizip//Users/wulf/Downloads/swissbuildings3d_3_0_2024_1129-33_2056_5728.gdb.zip/swissBUILDINGS3D_3-0_1129-33.gdb/a0000000b.gdbtable|layername=Roof_solid"},"geometry":{"type":"Polygon","coordinates":[[[2641965.728999998420477,1218614.83500000089407,599.73399999999674],[2641965.046999998390675,1218620.208999998867512,599.5341000000044],[2641955.221999999135733,1218618.964000001549721,599.73399999999674],[2641953.675999999046326,1218631.460999999195337,599.73410000000149],[2641928.410999998450279,1218628.335999999195337,599.5341000000044],[2641925.320000000298023,1218653.329,599.73410000000149],[2641965.947999998927116,1218658.353000000119209,599.5341000000044],[2641968.980000000447035,1218633.829,599.5341000000044],[2641995.936000000685453,1218637.162999998778105,599.73399999999674],[2641999.385000001639128,1218609.272999998182058,599.73399999999674],[2641966.975999999791384,1218605.265000000596046,599.533999999999651],[2641965.793000001460314,1218614.842999998480082,599.73399999999674],[2641965.728999998420477,1218614.83500000089407,599.73399999999674]]]}},
{"type":"Feature","properties":{"fid":256,"OBJECTID":1,"UUID":"{0241BDAF-FECA-476C-BB76-2B1614C5FEC1}","OBJEKTART":"Gebaeude Einzelhaus","NAME_KOMPLETT":null,"GEBAEUDE_NUTZUNG":null,"GRUND_AENDERUNG":"Verbessert","HERKUNFT":"swisstopo","HERKUNFT_JAHR":2024,"HERKUNFT_MONAT":6,"ORIGINAL_HERKUNFT":"swisstopo","ERSTELLUNG_JAHR":2024,"ERSTELLUNG_MONAT":6,"REVISION_JAHR":2024,"REVISION_MONAT":6,"DATUM_AENDERUNG":"2025-07-08T11:55:40Z","DATUM_ERSTELLUNG":"2025-07-08T11:55:40Z","DACH_MAX":571.05,"DACH_MIN":567.57,"EGID":187524,"GEBAEUDEEINHEIT":"{0161A195-33E8-41ED-A8F7-CD5593D4FBF9}","layer":"swissbuildings3d_3_0_2024_1129-33_2056_5728.gdb — swissBUILDINGS3D_3-0_1129-33.gdb/a0000000b.gdbtable","path":"/vsizip//Users/wulf/Downloads/swissbuildings3d_3_0_2024_1129-33_2056_5728.gdb.zip/swissBUILDINGS3D_3-0_1129-33.gdb/a0000000b.gdbtable|layername=Roof_solid"},"geometry":{"type":"Polygon","coordinates":[[[2641984.973999999463558,1218488.252999998629093,610.357799999997951],[2641990.160999998450279,1218488.909000001847744,610.557799999995041],[2641991.225999999791384,1218480.480000000447035,610.557799999995041],[2641981.585999999195337,1218479.261,610.357799999997951],[2641981.370999999344349,1218480.962999999523163,610.557799999995041],[2641973.516255774069577,1218479.969032367225736,611.304778566026584],[2641974.686999998986721,1218470.679999999701977,612.205600000001141],[2641965.940000001341105,1218469.574999999254942,612.205600000001141],[2641964.36600000038743,1218482.026000000536442,612.005600000004051],[2641959.228999998420477,1218481.375999998301268,612.205600000001141],[2641958.175000000745058,1218489.712999999523163,612.205600000001141],[2641968.100999999791384,1218490.967999998480082,612.005600000004051],[2641968.320999998599291,1218489.225999999791384,612.005600000004051],[2641971.925837641581893,1218489.680875263409689,611.281699999999546],[2641970.857999999076128,1218498.135000001639128,610.357799999997951],[2641974.76799999922514,1218498.629999998956919,610.557799999995041],[2641974.6739999987185,1218499.370000001043081,610.557799999995041],[2641983.429000001400709,1218500.475999999791384,610.557799999995041],[2641984.973999999463558,1218488.252999998629093,610.357799999997951]]]}},
{"type":"Feature","properties":{"fid":257,"OBJECTID":1,"UUID":"{0241BDAF-FECA-476C-BB76-2B1614C5FEC1}","OBJEKTART":"Gebaeude Einzelhaus","NAME_KOMPLETT":null,"GEBAEUDE_NUTZUNG":null,"GRUND_AENDERUNG":"Verbessert","HERKUNFT":"swisstopo","HERKUNFT_JAHR":2024,"HERKUNFT_MONAT":6,"ORIGINAL_HERKUNFT":"swisstopo","ERSTELLUNG_JAHR":2024,"ERSTELLUNG_MONAT":6,"REVISION_JAHR":2024,"REVISION_MONAT":6,"DATUM_AENDERUNG":"2025-07-08T11:55:40Z","DATUM_ERSTELLUNG":"2025-07-08T11:55:40Z","DACH_MAX":571.05,"DACH_MIN":567.57,"EGID":187524,"GEBAEUDEEINHEIT":"{0161A195-33E8-41ED-A8F7-CD5593D4FBF9}","layer":"swissbuildings3d_3_0_2024_1129-33_2056_5728.gdb — swissBUILDINGS3D_3-0_1129-33.gdb/a0000000b.gdbtable","path":"/vsizip//Users/wulf/Downloads/swissbuildings3d_3_0_2024_1129-33_2056_5728.gdb.zip/swissBUILDINGS3D_3-0_1129-33.gdb/a0000000b.gdbtable|layername=Roof_solid"},"geometry":{"type":"Polygon","coordinates":[[[2641995.934999998658895,1218637.162999998778105,597.772200000006706],[2641968.980000000447035,1218633.829,599.5341000000044],[2641966.221000000834465,1218656.144999999552965,597.572299999999814],[2641969.302999999374151,1218656.528999999165535,597.572299999999814],[2641993.175999999046326,1218659.478000000119209,597.572299999999814],[2641993.724269710481167,1218655.046083848923445,595.243279855470632],[2641999.212999999523163,1218655.725000001490116,592.945800000001327],[2642000.824000000953674,1218642.699999999254942,592.745800000004238],[2641995.333373240660876,1218642.020293792244047,595.16278784886299],[2641995.934999998658895,1218637.162999998778105,597.772200000006706]]]}},
{"type":"Feature","properties":{"fid":258,"OBJECTID":1,"UUID":"{0241BDAF-FECA-476C-BB76-2B1614C5FEC1}","OBJEKTART":"Gebaeude Einzelhaus","NAME_KOMPLETT":null,"GEBAEUDE_NUTZUNG":null,"GRUND_AENDERUNG":"Verbessert","HERKUNFT":"swisstopo","HERKUNFT_JAHR":2024,"HERKUNFT_MONAT":6,"ORIGINAL_HERKUNFT":"swisstopo","ERSTELLUNG_JAHR":2024,"ERSTELLUNG_MONAT":6,"REVISION_JAHR":2024,"REVISION_MONAT":6,"DATUM_AENDERUNG":"2025-07-08T11:55:40Z","DATUM_ERSTELLUNG":"2025-07-08T11:55:40Z","DACH_MAX":571.05,"DACH_MIN":567.57,"EGID":187524,"GEBAEUDEEINHEIT":"{0161A195-33E8-41ED-A8F7-CD5593D4FBF9}","layer":"swissbuildings3d_3_0_2024_1129-33_2056_5728.gdb — swissBUILDINGS3D_3-0_1129-33.gdb/a0000000b.gdbtable","path":"/vsizip//Users/wulf/Downloads/swissbuildings3d_3_0_2024_1129-33_2056_5728.gdb.zip/swissBUILDINGS3D_3-0_1129-33.gdb/a0000000b.gdbtable|layername=Roof_solid"},"geometry":{"type":"Polygon","coordinates":[[[2641971.032999999821186,1218676.813999999314547,593.612699999997858],[2641961.76799999922514,1218675.644000001251698,593.612699999997858],[2641955.64299999922514,1218724.181000001728535,593.612800000002608],[2641964.907999999821186,1218725.350999999791384,593.612800000002608],[2641971.032999999821186,1218676.813999999314547,593.612699999997858]]]}},
{"type":"Feature","properties":{"fid":259,"OBJECTID":1,"UUID":"{0241BDAF-FECA-476C-BB76-2B1614C5FEC1}","OBJEKTART":"Gebaeude Einzelhaus","NAME_KOMPLETT":null,"GEBAEUDE_NUTZUNG":null,"GRUND_AENDERUNG":"Verbessert","HERKUNFT":"swisstopo","HERKUNFT_JAHR":2024,"HERKUNFT_MONAT":6,"ORIGINAL_HERKUNFT":"swisstopo","ERSTELLUNG_JAHR":2024,"ERSTELLUNG_MONAT":6,"REVISION_JAHR":2024,"REVISION_MONAT":6,"DATUM_AENDERUNG":"2025-07-08T11:55:40Z","DATUM_ERSTELLUNG":"2025-07-08T11:55:40Z","DACH_MAX":571.05,"DACH_MIN":567.57,"EGID":187524,"GEBAEUDEEINHEIT":"{0161A195-33E8-41ED-A8F7-CD5593D4FBF9}","layer":"swissbuildings3d_3_0_2024_1129-33_2056_5728.gdb — swissBUILDINGS3D_3-0_1129-33.gdb/a0000000b.gdbtable","path":"/vsizip//Users/wulf/Downloads/swissbuildings3d_3_0_2024_1129-33_2056_5728.gdb.zip/swissBUILDINGS3D_3-0_1129-33.gdb/a0000000b.gdbtable|layername=Roof_solid"},"geometry":{"type":"Polygon","coordinates":[[[2641961.635000001639128,1218756.002000000327826,593.359800000005635],[2641964.537000000476837,1218731.465999998152256,593.359800000005635],[2641960.171999998390675,1218730.949999999254942,593.559800000002724],[2641957.271000001579523,1218755.486000001430511,593.559800000002724],[2641961.635000001639128,1218756.002000000327826,593.359800000005635]]]}},
{"type":"Feature","properties":{"fid":260,"OBJECTID":1,"UUID":"{0241BDAF-FECA-476C-BB76-2B1614C5FEC1}","OBJEKTART":"Gebaeude Einzelhaus","NAME_KOMPLETT":null,"GEBAEUDE_NUTZUNG":null,"GRUND_AENDERUNG":"Verbessert","HERKUNFT":"swisstopo","HERKUNFT_JAHR":2024,"HERKUNFT_MONAT":6,"ORIGINAL_HERKUNFT":"swisstopo","ERSTELLUNG_JAHR":2024,"ERSTELLUNG_MONAT":6,"REVISION_JAHR":2024,"REVISION_MONAT":6,"DATUM_AENDERUNG":"2025-07-08T11:55:40Z","DATUM_ERSTELLUNG":"2025-07-08T11:55:40Z","DACH_MAX":571.05,"DACH_MIN":567.57,"EGID":187524,"GEBAEUDEEINHEIT":"{0161A195-33E8-41ED-A8F7-CD5593D4FBF9}","layer":"swissbuildings3d_3_0_2024_1129-33_2056_5728.gdb — swissBUILDINGS3D_3-0_1129-33.gdb/a0000000b.gdbtable","path":"/vsizip//Users/wulf/Downloads/swissbuildings3d_3_0_2024_1129-33_2056_5728.gdb.zip/swissBUILDINGS3D_3-0_1129-33.gdb/a0000000b.gdbtable|layername=Roof_solid"},"geometry":{"type":"Polygon","coordinates":[[[2642024.75838626967743,1218855.31,597.238066291387099],[2642025.418999999761581,1218853.079,595.756599999993341],[2641984.75899999961257,1218841.03999999910593,595.756599999993341],[2641984.63955627148971,1218841.442569601815194,597.420078702398882],[2641976.024424388539046,1218838.891567685408518,595.287076327001159],[2641976.943999998271465,1218835.787999998778105,591.955000000001746],[2641942.107999999076128,1218825.473000001162291,591.955000000001746],[2641939.984999999403954,1218832.636,595.877600000007078],[2641937.787999998778105,1218840.059000000357628,591.755099999994854],[2641970.066238956060261,1218849.616689306451008,595.134234661997766],[2641968.763999998569489,1218854.015000000596046,599.916200000006938],[2641973.137115382123739,1218855.31,599.916200000006938],[2642024.75838626967743,1218855.31,597.238066291387099]],[[2641972.263000000268221,1218842.195999998599291,595.877600000007078],[2641973.465999998152256,1218838.13399999961257,593.653900000004796],[2641970.39625077182427,1218848.502074749208987,598.158113847396862],[2641970.396000001579523,1218848.502000000327826,592.345000000001164],[2641972.263000000268221,1218842.195999998599291,595.877600000007078]],[[2641974.723000001162291,1218838.506000000983477,593.453899999993155],[2641974.722943495493382,1218838.50618992256932,596.785101973387668],[2641973.465999998152256,1218838.13399999961257,593.653900000004796],[2641974.723000001162291,1218838.506000000983477,593.453899999993155]]]}},
{"type":"Feature","properties":{"fid":261,"OBJECTID":1,"UUID":"{0241BDAF-FECA-476C-BB76-2B1614C5FEC1}","OBJEKTART":"Gebaeude Einzelhaus","NAME_KOMPLETT":null,"GEBAEUDE_NUTZUNG":null,"GRUND_AENDERUNG":"Verbessert","HERKUNFT":"swisstopo","HERKUNFT_JAHR":2024,"HERKUNFT_MONAT":6,"ORIGINAL_HERKUNFT":"swisstopo","ERSTELLUNG_JAHR":2024,"ERSTELLUNG_MONAT":6,"REVISION_JAHR":2024,"REVISION_MONAT":6,"DATUM_AENDERUNG":"2025-07-08T11:55:40Z","DATUM_ERSTELLUNG":"2025-07-08T11:55:40Z","DACH_MAX":571.05,"DACH_MIN":567.57,"EGID":187524,"GEBAEUDEEINHEIT":"{0161A195-33E8-41ED-A8F7-CD5593D4FBF9}","layer":"swissbuildings3d_3_0_2024_1129-33_2056_5728.gdb — swissBUILDINGS3D_3-0_1129-33.gdb/a0000000b.gdbtable","path":"/vsizip//Users/wulf/Downloads/swissbuildings3d_3_0_2024_1129-33_2056_5728.gdb.zip/swissBUILDINGS3D_3-0_1129-33.gdb/a0000000b.gdbtable|layername=Roof_solid"},"geometry":{"type":"Polygon","coordinates":[[[2641990.265000000596046,1218510.600999999791384,602.533599999995204],[2641979.80799999833107,1218509.324000000953674,602.333700000002864],[2641976.837999999523163,1218533.646000001579523,602.5337],[2641978.217948163859546,1218533.814493776764721,599.392503856734265],[2641976.874000001698732,1218546.616999998688698,596.451300000000629],[2641983.318,1218547.293999999761581,596.451300000000629],[2641984.649999998509884,1218534.600000001490116,596.451300000000629],[2641983.220669596455991,1218534.42533369245939,597.921900400132472],[2641986.412000000476837,1218534.815000001341105,602.5337],[2641991.098999999463558,1218535.388000000268221,602.333700000002864],[2641991.484000001102686,1218532.234999999403954,602.333700000002864],[2642009.772999998182058,1218534.469000000506639,602.5337],[2642011.245000001043081,1218522.418000001460314,602.533599999995204],[2642001.247199665289372,1218521.196571388980374,600.566205685475097],[2642001.359999999403954,1218521.21000000089407,598.2981],[2642002.898047413211316,1218508.619587430730462,598.538571113391754],[2642011.357999999076128,1218509.653000000864267,598.805999999996857],[2642011.358098370954394,1218509.652192480396479,598.195549999996729],[2642079.219999998807907,1218517.940000001341105,597.585099999996601],[2642082.58162856195122,1218490.412739578867331,601.100749999997788],[2642082.929035074077547,1218490.456677489681169,604.33739795281349],[2642082.565999999642372,1218493.322999998927116,605.001300000003539],[2642091.342999998480082,1218494.43299999833107,605.001300000003539],[2642092.50899999961257,1218485.208000000566244,605.001300000003539],[2642083.732999999076128,1218484.098000001162291,605.201300000000629],[2642087.909000001847744,1218484.625999998301268,604.416400000001886],[2642088.383000001311302,1218480.879000000655651,604.416400000001886],[2642088.550322489347309,1218479.556355550419539,604.608850000004168],[2642089.905999999493361,1218479.736000001430511,605.001300000003539],[2642091.039000000804663,1218470.772999998182058,605.001300000003539],[2642082.054999999701977,1218469.636,605.201300000000629],[2642081.65088773611933,1218472.828985789092258,604.972893001055013],[2642079.017541707027704,1218472.495650847442448,604.623477922980328],[2642079.195999998599291,1218471.083999998867512,605.001300000003539],[2642070.190000001341105,1218469.947999998927116,605.001300000003539],[2642069.51799999922514,1218475.263999998569489,605.001300000003539],[2642069.019999999552965,1218479.199999999254942,605.001300000003539],[2642071.971957591827959,1218479.573337741196156,604.905073193894054],[2642070.798000000417233,1218488.923000000417233,604.216400000004796],[2642070.855999998748302,1218488.934999998658895,604.416400000001886],[2642072.890000000596046,1218489.186999998986721,604.416400000001886],[2642078.465606139041483,1218489.892169525614008,601.100749999997788],[2642075.600999999791384,1218513.350000001490116,597.78509999999369],[2642011.855979548767209,1218505.565167869906873,598.200578277037721],[2642011.855999998748302,1218505.565000001341105,598.805999999996857],[2641992.094897132366896,1218503.151842928025872,599.13747061451636],[2641992.094999998807907,1218503.151000000536442,599.468900000007125],[2641978.743000000715256,1218501.521000001579523,599.468999999997322],[2641978.243999999016523,1218505.609000001102686,599.668900000004214],[2641991.596000000834465,1218507.239999998360872,599.668900000004214],[2641991.596119868569076,1218507.23901775595732,599.195124887031852],[2641999.593133741058409,1218508.215880755567923,598.552049999998417],[2641998.055050407536328,1218520.806587361730635,599.481707348462805],[2641992.828000001609325,1218520.168000001460314,602.533599999995204],[2641994.037999998778105,1218510.263999998569489,602.533599999995204],[2641990.361000001430511,1218509.815000001341105,602.533599999995204],[2641990.265000000596046,1218510.600999999791384,602.533599999995204]],[[2641998.859334589913487,1218520.904846546705812,599.63945775216564],[2641999.074999999254942,1218520.931000001728535,598.826000000000931],[2641999.259547716937959,1218520.953740478027612,599.675450851272444],[2641998.859334589913487,1218520.904846546705812,599.63945775216564]]]}},
{"type":"Feature","properties":{"fid":262,"OBJECTID":1,"UUID":"{0241BDAF-FECA-476C-BB76-2B1614C5FEC1}","OBJEKTART":"Gebaeude Einzelhaus","NAME_KOMPLETT":null,"GEBAEUDE_NUTZUNG":null,"GRUND_AENDERUNG":"Verbessert","HERKUNFT":"swisstopo","HERKUNFT_JAHR":2024,"HERKUNFT_MONAT":6,"ORIGINAL_HERKUNFT":"swisstopo","ERSTELLUNG_JAHR":2024,"ERSTELLUNG_MONAT":6,"REVISION_JAHR":2024,"REVISION_MONAT":6,"DATUM_AENDERUNG":"2025-07-08T11:55:40Z","DATUM_ERSTELLUNG":"2025-07-08T11:55:40Z","DACH_MAX":571.05,"DACH_MIN":567.57,"EGID":187524,"GEBAEUDEEINHEIT":"{0161A195-33E8-41ED-A8F7-CD5593D4FBF9}","layer":"swissbuildings3d_3_0_2024_1129-33_2056_5728.gdb — swissBUILDINGS3D_3-0_1129-33.gdb/a0000000b.gdbtable","path":"/vsizip//Users/wulf/Downloads/swissbuildings3d_3_0_2024_1129-33_2056_5728.gdb.zip/swissBUILDINGS3D_3-0_1129-33.gdb/a0000000b.gdbtable|layername=Roof_solid"},"geometry":{"type":"Polygon","coordinates":[[[2642026.292825954500586,1218498.232397985178977,605.544233232983743],[2642025.929999999701977,1218501.098999999463558,606.300199999997858],[2642034.706000000238419,1218502.208000000566244,606.300199999997858],[2642035.872999999672174,1218492.982999999076128,606.300199999997858],[2642027.096000000834465,1218491.874000001698732,606.100200000000768],[2642031.276999998837709,1218492.401999998837709,605.515299999999115],[2642031.920912471134216,1218487.337688408559188,605.822755426646609],[2642033.269000001251698,1218487.508000001311302,606.100200000000768],[2642034.401000000536442,1218478.548000000417233,606.100200000000768],[2642025.418000001460314,1218477.412999998778105,606.100200000000768],[2642024.285000000149012,1218486.372999999672174,606.300199999997858],[2642025.013999998569489,1218480.605000000447035,605.515299999999115],[2642022.381000000983477,1218480.271999999880791,605.515299999999115],[2642021.390000000596046,1218488.114999998360872,605.315300000002026],[2642022.559000000357628,1218478.861000001430511,606.300199999997858],[2642013.552999999374151,1218477.723000001162291,606.300199999997858],[2642012.38399999961257,1218486.975999999791384,606.100200000000768],[2642015.343128362670541,1218487.350244636647403,605.68152226534005],[2642014.160999998450279,1218496.699000000953674,605.315300000002026],[2642021.922121442854404,1218497.679964286275208,602.063549995107678],[2642020.8260000012815,1218506.657999999821186,598.490000000005239],[2642025.147999998182058,1218507.186000000685453,598.490000000005239],[2642026.241829072125256,1218498.225952251581475,602.098438509362268],[2642026.292825954500586,1218498.232397985178977,605.544233232983743]],[[2642015.4510000012815,1218487.364,605.515299999999115],[2642015.451014052145183,1218487.363889073720202,605.84173127951567],[2642021.390000000596046,1218488.114999998360872,605.315300000002026],[2642015.4510000012815,1218487.364,605.515299999999115]]]}},
{"type":"Feature","properties":{"fid":263,"OBJECTID":1,"UUID":"{0241BDAF-FECA-476C-BB76-2B1614C5FEC1}","OBJEKTART":"Gebaeude Einzelhaus","NAME_KOMPLETT":null,"GEBAEUDE_NUTZUNG":null,"GRUND_AENDERUNG":"Verbessert","HERKUNFT":"swisstopo","HERKUNFT_JAHR":2024,"HERKUNFT_MONAT":6,"ORIGINAL_HERKUNFT":"swisstopo","ERSTELLUNG_JAHR":2024,"ERSTELLUNG_MONAT":6,"REVISION_JAHR":2024,"REVISION_MONAT":6,"DATUM_AENDERUNG":"2025-07-08T11:55:40Z","DATUM_ERSTELLUNG":"2025-07-08T11:55:40Z","DACH_MAX":571.05,"DACH_MIN":567.57,"EGID":187524,"GEBAEUDEEINHEIT":"{0161A195-33E8-41ED-A8F7-CD5593D4FBF9}","layer":"swissbuildings3d_3_0_2024_1129-33_2056_5728.gdb — swissBUILDINGS3D_3-0_1129-33.gdb/a0000000b.gdbtable","path":"/vsizip//Users/wulf/Downloads/swissbuildings3d_3_0_2024_1129-33_2056_5728.gdb.zip/swissBUILDINGS3D_3-0_1129-33.gdb/a0000000b.gdbtable|layername=Roof_solid"},"geometry":{"type":"Polygon","coordinates":[[[2642069.36600000038743,1218526.109999999403954,599.158999999999651],[2642070.195000000298023,1218519.322999998927116,599.158999999999651],[2642020.026999998837709,1218513.195999998599291,599.158999999999651],[2642018.842000000178814,1218522.921,598.959000000002561],[2642018.844955881126225,1218522.921360987704247,600.824800000002142],[2642017.320999998599291,1218535.390999998897314,602.690600000001723],[2642041.712999999523163,1218538.370000001043081,602.690600000001723],[2642043.234999999403954,1218525.899999998509884,602.490600000004633],[2642043.236000001430511,1218525.899999998509884,599.158999999999651],[2642043.594000000506639,1218522.962999999523163,599.158999999999651],[2642069.36600000038743,1218526.109999999403954,599.158999999999651]]]}},
{"type":"Feature","properties":{"fid":264,"OBJECTID":1,"UUID":"{0241BDAF-FECA-476C-BB76-2B1614C5FEC1}","OBJEKTART":"Gebaeude Einzelhaus","NAME_KOMPLETT":null,"GEBAEUDE_NUTZUNG":null,"GRUND_AENDERUNG":"Verbessert","HERKUNFT":"swisstopo","HERKUNFT_JAHR":2024,"HERKUNFT_MONAT":6,"ORIGINAL_HERKUNFT":"swisstopo","ERSTELLUNG_JAHR":2024,"ERSTELLUNG_MONAT":6,"REVISION_JAHR":2024,"REVISION_MONAT":6,"DATUM_AENDERUNG":"2025-07-08T11:55:40Z","DATUM_ERSTELLUNG":"2025-07-08T11:55:40Z","DACH_MAX":571.05,"DACH_MIN":567.57,"EGID":187524,"GEBAEUDEEINHEIT":"{0161A195-33E8-41ED-A8F7-CD5593D4FBF9}","layer":"swissbuildings3d_3_0_2024_1129-33_2056_5728.gdb — swissBUILDINGS3D_3-0_1129-33.gdb/a0000000b.gdbtable","path":"/vsizip//Users/wulf/Downloads/swissbuildings3d_3_0_2024_1129-33_2056_5728.gdb.zip/swissBUILDINGS3D_3-0_1129-33.gdb/a0000000b.gdbtable|layername=Roof_solid"},"geometry":{"type":"Polygon","coordinates":[[[2642012.094999998807907,1218841.157999999821186,589.16830000000482],[2642028.456000000238419,1218845.458999998867512,588.968299999993178],[2642030.489999998360872,1218837.736000001430511,589.16830000000482],[2642021.590999998152256,1218835.394000001251698,589.16830000000482],[2642020.837999999523163,1218838.254000000655651,589.16830000000482],[2642013.377999998629093,1218836.289000000804663,589.16830000000482],[2642012.094999998807907,1218841.157999999821186,589.16830000000482]]]}},
{"type":"Feature","properties":{"fid":265,"OBJECTID":1,"UUID":"{0241BDAF-FECA-476C-BB76-2B1614C5FEC1}","OBJEKTART":"Gebaeude Einzelhaus","NAME_KOMPLETT":null,"GEBAEUDE_NUTZUNG":null,"GRUND_AENDERUNG":"Verbessert","HERKUNFT":"swisstopo","HERKUNFT_JAHR":2024,"HERKUNFT_MONAT":6,"ORIGINAL_HERKUNFT":"swisstopo","ERSTELLUNG_JAHR":2024,"ERSTELLUNG_MONAT":6,"REVISION_JAHR":2024,"REVISION_MONAT":6,"DATUM_AENDERUNG":"2025-07-08T11:55:40Z","DATUM_ERSTELLUNG":"2025-07-08T11:55:40Z","DACH_MAX":571.05,"DACH_MIN":567.57,"EGID":187524,"GEBAEUDEEINHEIT":"{0161A195-33E8-41ED-A8F7-CD5593D4FBF9}","layer":"swissbuildings3d_3_0_2024_1129-33_2056_5728.gdb — swissBUILDINGS3D_3-0_1129-33.gdb/a0000000b.gdbtable","path":"/vsizip//Users/wulf/Downloads/swissbuildings3d_3_0_2024_1129-33_2056_5728.gdb.zip/swissBUILDINGS3D_3-0_1129-33.gdb/a0000000b.gdbtable|layername=Roof_solid"},"geometry":{"type":"Polygon","coordinates":[[[2642045.180656192824244,1218855.31,586.036873084408967],[2642041.546,1218854.589999999850988,586.107600000003004],[2642041.403352509718388,1218855.31,586.107600000003004],[2642045.180656192824244,1218855.31,586.036873084408967]]]}},
{"type":"Feature","properties":{"fid":266,"OBJECTID":1,"UUID":"{0241BDAF-FECA-476C-BB76-2B1614C5FEC1}","OBJEKTART":"Gebaeude Einzelhaus","NAME_KOMPLETT":null,"GEBAEUDE_NUTZUNG":null,"GRUND_AENDERUNG":"Verbessert","HERKUNFT":"swisstopo","HERKUNFT_JAHR":2024,"HERKUNFT_MONAT":6,"ORIGINAL_HERKUNFT":"swisstopo","ERSTELLUNG_JAHR":2024,"ERSTELLUNG_MONAT":6,"REVISION_JAHR":2024,"REVISION_MONAT":6,"DATUM_AENDERUNG":"2025-07-08T11:55:40Z","DATUM_ERSTELLUNG":"2025-07-08T11:55:40Z","DACH_MAX":571.05,"DACH_MIN":567.57,"EGID":187524,"GEBAEUDEEINHEIT":"{0161A195-33E8-41ED-A8F7-CD5593D4FBF9}","layer":"swissbuildings3d_3_0_2024_1129-33_2056_5728.gdb — swissBUILDINGS3D_3-0_1129-33.gdb/a0000000b.gdbtable","path":"/vsizip//Users/wulf/Downloads/swissbuildings3d_3_0_2024_1129-33_2056_5728.gdb.zip/swissBUILDINGS3D_3-0_1129-33.gdb/a0000000b.gdbtable|layername=Roof_solid"},"geometry":{"type":"Polygon","coordinates":[[[2642070.8260000012815,1218399.677000001072884,603.5144],[2642070.790872573386878,1218396.457294109277427,603.433946412525074],[2642070.78999999910593,1218396.372000001370907,603.364400000005844],[2642070.787999998778105,1218396.193999998271465,603.314400000002934],[2642061.982999999076128,1218396.28999999910593,603.314400000002934],[2642062.021000001579523,1218399.774000000208616,603.314400000002934],[2642062.129999998956919,1218409.754999998956919,603.5144],[2642088.670000001788139,1218409.464000001549721,603.5144],[2642088.522999998182058,1218395.999000001698732,603.5144],[2642079.598000001162291,1218396.098000001162291,603.314400000002934],[2642079.636,1218399.581000000238419,603.5144],[2642070.8260000012815,1218399.677000001072884,603.5144]]]}},
{"type":"Feature","properties":{"fid":267,"OBJECTID":1,"UUID":"{0241BDAF-FECA-476C-BB76-2B1614C5FEC1}","OBJEKTART":"Gebaeude Einzelhaus","NAME_KOMPLETT":null,"GEBAEUDE_NUTZUNG":null,"GRUND_AENDERUNG":"Verbessert","HERKUNFT":"swisstopo","HERKUNFT_JAHR":2024,"HERKUNFT_MONAT":6,"ORIGINAL_HERKUNFT":"swisstopo","ERSTELLUNG_JAHR":2024,"ERSTELLUNG_MONAT":6,"REVISION_JAHR":2024,"REVISION_MONAT":6,"DATUM_AENDERUNG":"2025-07-08T11:55:40Z","DATUM_ERSTELLUNG":"2025-07-08T11:55:40Z","DACH_MAX":571.05,"DACH_MIN":567.57,"EGID":187524,"GEBAEUDEEINHEIT":"{0161A195-33E8-41ED-A8F7-CD5593D4FBF9}","layer":"swissbuildings3d_3_0_2024_1129-33_2056_5728.gdb — swissBUILDINGS3D_3-0_1129-33.gdb/a0000000b.gdbtable","path":"/vsizip//Users/wulf/Downloads/swissbuildings3d_3_0_2024_1129-33_2056_5728.gdb.zip/swissBUILDINGS3D_3-0_1129-33.gdb/a0000000b.gdbtable|layername=Roof_solid"},"geometry":{"type":"Polygon","coordinates":[[[2642048.589999999850988,1218827.962999999523163,588.686300000001211],[2642045.8260000012815,1218827.379999998956919,587.398499999995693],[2642042.458000000566244,1218843.344000000506639,587.598499999992782],[2642047.984000001102686,1218844.511,589.875199999994948],[2642053.260000001639128,1218845.625,587.598499999992782],[2642054.102000001817942,1218841.63399999961257,587.448499999998603],[2642054.590999998152256,1218839.315999999642372,587.598400000002584],[2642055.28999999910593,1218836.006000000983477,587.598400000002584],[2642055.787000000476837,1218833.651000000536442,587.548399999999674],[2642056.629000000655651,1218829.660000000149012,587.598400000002584],[2642053.081999998539686,1218828.910999998450279,589.129300000000512],[2642051.353999998420477,1218828.546,589.875199999994948],[2642049.646000001579523,1218828.186000000685453,589.171300000001793],[2642048.589999999850988,1218827.962999999523163,588.686300000001211]]]}},
{"type":"Feature","properties":{"fid":268,"OBJECTID":1,"UUID":"{0241BDAF-FECA-476C-BB76-2B1614C5FEC1}","OBJEKTART":"Gebaeude Einzelhaus","NAME_KOMPLETT":null,"GEBAEUDE_NUTZUNG":null,"GRUND_AENDERUNG":"Verbessert","HERKUNFT":"swisstopo","HERKUNFT_JAHR":2024,"HERKUNFT_MONAT":6,"ORIGINAL_HERKUNFT":"swisstopo","ERSTELLUNG_JAHR":2024,"ERSTELLUNG_MONAT":6,"REVISION_JAHR":2024,"REVISION_MONAT":6,"DATUM_AENDERUNG":"2025-07-08T11:55:40Z","DATUM_ERSTELLUNG":"2025-07-08T11:55:40Z","DACH_MAX":571.05,"DACH_MIN":567.57,"EGID":187524,"GEBAEUDEEINHEIT":"{0161A195-33E8-41ED-A8F7-CD5593D4FBF9}","layer":"swissbuildings3d_3_0_2024_1129-33_2056_5728.gdb — swissBUILDINGS3D_3-0_1129-33.gdb/a0000000b.gdbtable","path":"/vsizip//Users/wulf/Downloads/swissbuildings3d_3_0_2024_1129-33_2056_5728.gdb.zip/swissBUILDINGS3D_3-0_1129-33.gdb/a0000000b.gdbtable|layername=Roof_solid"},"geometry":{"type":"Polygon","coordinates":[[[2642070.568999998271465,1218345.734000001102686,609.112800000002608],[2642071.208000000566244,1218352.021000001579523,611.232600000003004],[2642071.684000000357628,1218356.719000000506639,609.492700000002515],[2642071.686057305894792,1218356.739331021904945,608.757229764097247],[2642069.905999999493361,1218356.920000001788139,605.66009999999369],[2642070.719999998807907,1218364.940000001341105,605.66009999999369],[2642074.403000000864267,1218364.565999999642372,606.951000000000931],[2642078.962999999523163,1218364.103000000119209,605.345199999996112],[2642078.305653631221503,1218357.629241209942847,607.22899999999936],[2642084.232999999076128,1218357.028000000864267,609.112800000002608],[2642083.596000000834465,1218350.763999998569489,611.232499999998254],[2642082.958000000566244,1218344.475999999791384,609.112800000002608],[2642070.568999998271465,1218345.734000001102686,609.112800000002608]]]}},
{"type":"Feature","properties":{"fid":269,"OBJECTID":1,"UUID":"{0241BDAF-FECA-476C-BB76-2B1614C5FEC1}","OBJEKTART":"Gebaeude Einzelhaus","NAME_KOMPLETT":null,"GEBAEUDE_NUTZUNG":null,"GRUND_AENDERUNG":"Verbessert","HERKUNFT":"swisstopo","HERKUNFT_JAHR":2024,"HERKUNFT_MONAT":6,"ORIGINAL_HERKUNFT":"swisstopo","ERSTELLUNG_JAHR":2024,"ERSTELLUNG_MONAT":6,"REVISION_JAHR":2024,"REVISION_MONAT":6,"DATUM_AENDERUNG":"2025-07-08T11:55:40Z","DATUM_ERSTELLUNG":"2025-07-08T11:55:40Z","DACH_MAX":571.05,"DACH_MIN":567.57,"EGID":187524,"GEBAEUDEEINHEIT":"{0161A195-33E8-41ED-A8F7-CD5593D4FBF9}","layer":"swissbuildings3d_3_0_2024_1129-33_2056_5728.gdb — swissBUILDINGS3D_3-0_1129-33.gdb/a0000000b.gdbtable","path":"/vsizip//Users/wulf/Downloads/swissbuildings3d_3_0_2024_1129-33_2056_5728.gdb.zip/swissBUILDINGS3D_3-0_1129-33.gdb/a0000000b.gdbtable|layername=Roof_solid"},"geometry":{"type":"Polygon","coordinates":[[[2642086.689854851923883,1218441.423907723277807,600.656800431089096],[2642093.670000001788139,1218441.590999998152256,600.734700000000885],[2642094.046,1218425.918999999761581,600.734700000000885],[2642085.647999998182058,1218425.717999998480082,600.734700000000885],[2642085.482994486112148,1218432.552999868290499,600.634699875836532],[2642080.265999998897314,1218432.429000001400709,600.299700000003213],[2642080.166999999433756,1218436.578000001609325,600.516699999992852],[2642080.080989683512598,1218440.182614162797108,600.572608300966749],[2642075.01799999922514,1218440.061000000685453,600.624700000000303],[2642074.855000000447035,1218446.861000001430511,600.734700000000885],[2642079.918022520840168,1218446.983052689116448,600.634743087754941],[2642079.918000001460314,1218446.984000001102686,600.734700000000885],[2642086.552999999374151,1218447.14299999922514,600.734700000000885],[2642086.629000000655651,1218443.967000000178814,600.632700000001932],[2642086.689854851923883,1218441.423907723277807,600.656800431089096]]]}},
{"type":"Feature","properties":{"fid":270,"OBJECTID":1,"UUID":"{0241BDAF-FECA-476C-BB76-2B1614C5FEC1}","OBJEKTART":"Gebaeude Einzelhaus","NAME_KOMPLETT":null,"GEBAEUDE_NUTZUNG":null,"GRUND_AENDERUNG":"Verbessert","HERKUNFT":"swisstopo","HERKUNFT_JAHR":2024,"HERKUNFT_MONAT":6,"ORIGINAL_HERKUNFT":"swisstopo","ERSTELLUNG_JAHR":2024,"ERSTELLUNG_MONAT":6,"REVISION_JAHR":2024,"REVISION_MONAT":6,"DATUM_AENDERUNG":"2025-07-08T11:55:40Z","DATUM_ERSTELLUNG":"2025-07-08T11:55:40Z","DACH_MAX":571.05,"DACH_MIN":567.57,"EGID":187524,"GEBAEUDEEINHEIT":"{0161A195-33E8-41ED-A8F7-CD5593D4FBF9}","layer":"swissbuildings3d_3_0_2024_1129-33_2056_5728.gdb — swissBUILDINGS3D_3-0_1129-33.gdb/a0000000b.gdbtable","path":"/vsizip//Users/wulf/Downloads/swissbuildings3d_3_0_2024_1129-33_2056_5728.gdb.zip/swissBUILDINGS3D_3-0_1129-33.gdb/a0000000b.gdbtable|layername=Roof_solid"},"geometry":{"type":"Polygon","coordinates":[[[2642087.776999998837709,1218554.921999998390675,602.450599999996484],[2642087.304999999701977,1218558.798000000417233,602.650599999993574],[2642100.802999999374151,1218560.445999998599291,602.650599999993574],[2642104.204999998211861,1218532.589999999850988,602.650599999993574],[2642095.958000000566244,1218531.583000000566244,602.650599999993574],[2642095.861000001430511,1218532.377000000327826,602.650599999993574],[2642095.837999999523163,1218532.596000000834465,602.650599999993574],[2642093.881000000983477,1218532.357999999076128,602.650599999993574],[2642092.653999999165535,1218533.230000000447035,602.650599999993574],[2642091.368000000715256,1218543.765999998897314,602.650599999993574],[2642074.101054803468287,1218541.657551126554608,599.880901873973471],[2642077.024000000208616,1218517.717000000178814,597.311100000006263],[2642076.857999999076128,1218517.695999998599291,597.565100000007078],[2642076.386999998241663,1218517.638999998569489,597.781099999992875],[2642075.682,1218517.552999999374151,597.925099999993108],[2642074.850000001490116,1218517.4510000012815,597.97609999999986],[2642074.019000001251698,1218517.350000001490116,597.725099999996019],[2642073.313999999314547,1218517.263000000268221,597.781099999992875],[2642072.842000000178814,1218517.206000000238419,597.565100000007078],[2642072.677000001072884,1218517.186000000685453,597.311100000006263],[2642069.754031669348478,1218541.12674061418511,599.9808999994533],[2642066.938999999314547,1218540.782999999821186,602.650599999993574],[2642065.556000001728535,1218552.103999998420477,602.650599999993574],[2642087.793000001460314,1218554.820000000298023,602.650599999993574],[2642087.776999998837709,1218554.921999998390675,602.450599999996484]],[[2642070.024768537841737,1218541.159800013992935,600.132102658368126],[2642070.390000000596046,1218541.204,597.781099999992875],[2642071.094999998807907,1218541.28999999910593,597.725099999996019],[2642071.927000001072884,1218541.392000000923872,597.97609999999986],[2642072.090255924500525,1218541.412014548899606,600.308346362911038],[2642070.024768537841737,1218541.159800013992935,600.132102658368126]],[[2642073.997393280733377,1218541.644893124699593,599.960165380916123],[2642073.683272876776755,1218541.606536206323653,600.119039395566233],[2642073.934999998658895,1218541.636999998241663,597.365200000000186],[2642073.997393280733377,1218541.644893124699593,599.960165380916123]]]}},
{"type":"Feature","properties":{"fid":271,"OBJECTID":1,"UUID":"{0241BDAF-FECA-476C-BB76-2B1614C5FEC1}","OBJEKTART":"Gebaeude Einzelhaus","NAME_KOMPLETT":null,"GEBAEUDE_NUTZUNG":null,"GRUND_AENDERUNG":"Verbessert","HERKUNFT":"swisstopo","HERKUNFT_JAHR":2024,"HERKUNFT_MONAT":6,"ORIGINAL_HERKUNFT":"swisstopo","ERSTELLUNG_JAHR":2024,"ERSTELLUNG_MONAT":6,"REVISION_JAHR":2024,"REVISION_MONAT":6,"DATUM_AENDERUNG":"2025-07-08T11:55:40Z","DATUM_ERSTELLUNG":"2025-07-08T11:55:40Z","DACH_MAX":571.05,"DACH_MIN":567.57,"EGID":187524,"GEBAEUDEEINHEIT":"{0161A195-33E8-41ED-A8F7-CD5593D4FBF9}","layer":"swissbuildings3d_3_0_2024_1129-33_2056_5728.gdb — swissBUILDINGS3D_3-0_1129-33.gdb/a0000000b.gdbtable","path":"/vsizip//Users/wulf/Downloads/swissbuildings3d_3_0_2024_1129-33_2056_5728.gdb.zip/swissBUILDINGS3D_3-0_1129-33.gdb/a0000000b.gdbtable|layername=Roof_solid"},"geometry":{"type":"Polygon","coordinates":[[[2642105.160000000149012,1218527.449999999254942,596.137300000002142],[2642105.311000000685453,1218527.473999999463558,596.137300000002142],[2642106.079999998211861,1218521.181000001728535,596.137300000002142],[2642100.804999999701977,1218520.537000000476837,596.137300000002142],[2642100.804879751056433,1218520.537985318340361,597.668097252208668],[2642096.431000001728535,1218520.004000000655651,598.998999999996158],[2642097.364999998360872,1218512.359999999403954,599.19890000000305],[2642080.166000001132488,1218510.258000001311302,599.19890000000305],[2642078.094999998807907,1218527.212999999523163,599.198999999993248],[2642095.295000001788139,1218529.313999999314547,599.198999999993248],[2642095.664000000804663,1218526.296,599.198999999993248],[2642100.035999998450279,1218526.83500000089407,599.198999999993248],[2642100.621644123923033,1218522.039419956505299,597.668111921709851],[2642100.037000000476837,1218526.829999998211861,596.137300000002142],[2642102.627999998629093,1218527.146000001579523,595.937300000005052],[2642105.160000000149012,1218527.449999999254942,596.137300000002142]]]}},
{"type":"Feature","properties":{"fid":272,"OBJECTID":1,"UUID":"{0241BDAF-FECA-476C-BB76-2B1614C5FEC1}","OBJEKTART":"Gebaeude Einzelhaus","NAME_KOMPLETT":null,"GEBAEUDE_NUTZUNG":null,"GRUND_AENDERUNG":"Verbessert","HERKUNFT":"swisstopo","HERKUNFT_JAHR":2024,"HERKUNFT_MONAT":6,"ORIGINAL_HERKUNFT":"swisstopo","ERSTELLUNG_JAHR":2024,"ERSTELLUNG_MONAT":6,"REVISION_JAHR":2024,"REVISION_MONAT":6,"DATUM_AENDERUNG":"2025-07-08T11:55:40Z","DATUM_ERSTELLUNG":"2025-07-08T11:55:40Z","DACH_MAX":571.05,"DACH_MIN":567.57,"EGID":187524,"GEBAEUDEEINHEIT":"{0161A195-33E8-41ED-A8F7-CD5593D4FBF9}","layer":"swissbuildings3d_3_0_2024_1129-33_2056_5728.gdb — swissBUILDINGS3D_3-0_1129-33.gdb/a0000000b.gdbtable","path":"/vsizip//Users/wulf/Downloads/swissbuildings3d_3_0_2024_1129-33_2056_5728.gdb.zip/swissBUILDINGS3D_3-0_1129-33.gdb/a0000000b.gdbtable|layername=Roof_solid"},"geometry":{"type":"Polygon","coordinates":[[[2642133.573397097643465,1218840.099820183590055,570.984220894031068],[2642131.643059787806123,1218839.5006525258068,570.807071158238614],[2642131.763999998569489,1218839.111999999731779,571.138099999996484],[2642131.975000001490116,1218838.429999999701977,570.928100000004633],[2642094.440000001341105,1218826.782999999821186,571.128100000001723],[2642091.949999999254942,1218834.809999998658895,571.634099999995669],[2642092.820000000298023,1218835.079999998211861,571.68409999999858],[2642093.465876164380461,1218835.280347537714988,571.25959999999759],[2642093.032999999821186,1218836.675999999046326,570.73519999999553],[2642134.13399999961257,1218849.429000001400709,570.73519999999553],[2642135.24947152286768,1218845.833871054695919,571.061236361799274],[2642147.092999998480082,1218849.510000001639128,572.461999999999534],[2642150.361000001430511,1218838.973000001162291,572.461999999999534],[2642134.802999999374151,1218836.138999998569489,570.928100000004633],[2642133.573397097643465,1218840.099820183590055,570.984220894031068]]]}},
{"type":"Feature","properties":{"fid":273,"OBJECTID":1,"UUID":"{0241BDAF-FECA-476C-BB76-2B1614C5FEC1}","OBJEKTART":"Gebaeude Einzelhaus","NAME_KOMPLETT":null,"GEBAEUDE_NUTZUNG":null,"GRUND_AENDERUNG":"Verbessert","HERKUNFT":"swisstopo","HERKUNFT_JAHR":2024,"HERKUNFT_MONAT":6,"ORIGINAL_HERKUNFT":"swisstopo","ERSTELLUNG_JAHR":2024,"ERSTELLUNG_MONAT":6,"REVISION_JAHR":2024,"REVISION_MONAT":6,"DATUM_AENDERUNG":"2025-07-08T11:55:40Z","DATUM_ERSTELLUNG":"2025-07-08T11:55:40Z","DACH_MAX":571.05,"DACH_MIN":567.57,"EGID":187524,"GEBAEUDEEINHEIT":"{0161A195-33E8-41ED-A8F7-CD5593D4FBF9}","layer":"swissbuildings3d_3_0_2024_1129-33_2056_5728.gdb — swissBUILDINGS3D_3-0_1129-33.gdb/a0000000b.gdbtable","path":"/vsizip//Users/wulf/Downloads/swissbuildings3d_3_0_2024_1129-33_2056_5728.gdb.zip/swissBUILDINGS3D_3-0_1129-33.gdb/a0000000b.gdbtable|layername=Roof_solid"},"geometry":{"type":"Polygon","coordinates":[[[2642123.785999998450279,1218462.032000001519918,597.843999999997322],[2642129.734999999403954,1218461.484999999403954,597.843999999997322],[2642129.609000001102686,1218460.109999999403954,597.644000000000233],[2642137.962999999523163,1218459.342000000178814,597.843999999997322],[2642137.852000001817942,1218458.140000000596046,601.178700000004028],[2642136.695000000298023,1218445.568999998271465,597.843999999997322],[2642122.050000000745058,1218446.916999999433756,597.843999999997322],[2642122.900522449985147,1218456.158069778699428,598.996174903812971],[2642114.269000001251698,1218456.951999999582767,597.843999999997322],[2642114.811999998986721,1218462.857999999076128,597.843999999997322],[2642123.785999998450279,1218462.032000001519918,597.843999999997322]]]}},
{"type":"Feature","properties":{"fid":274,"OBJECTID":1,"UUID":"{0241BDAF-FECA-476C-BB76-2B1614C5FEC1}","OBJEKTART":"Gebaeude Einzelhaus","NAME_KOMPLETT":null,"GEBAEUDE_NUTZUNG":null,"GRUND_AENDERUNG":"Verbessert","HERKUNFT":"swisstopo","HERKUNFT_JAHR":2024,"HERKUNFT_MONAT":6,"ORIGINAL_HERKUNFT":"swisstopo","ERSTELLUNG_JAHR":2024,"ERSTELLUNG_MONAT":6,"REVISION_JAHR":2024,"REVISION_MONAT":6,"DATUM_AENDERUNG":"2025-07-08T11:55:40Z","DATUM_ERSTELLUNG":"2025-07-08T11:55:40Z","DACH_MAX":571.05,"DACH_MIN":567.57,"EGID":187524,"GEBAEUDEEINHEIT":"{0161A195-33E8-41ED-A8F7-CD5593D4FBF9}","layer":"swissbuildings3d_3_0_2024_1129-33_2056_5728.gdb — swissBUILDINGS3D_3-0_1129-33.gdb/a0000000b.gdbtable","path":"/vsizip//Users/wulf/Downloads/swissbuildings3d_3_0_2024_1129-33_2056_5728.gdb.zip/swissBUILDINGS3D_3-0_1129-33.gdb/a0000000b.gdbtable|layername=Roof_solid"},"geometry":{"type":"Polygon","coordinates":[[[2642121.890999998897314,1218703.030000001192093,564.334700000006706],[2642128.412999998778105,1218704.100999999791384,564.134699999995064],[2642129.039000000804663,1218700.28999999910593,565.537599999996019],[2642129.670000001788139,1218696.445000000298023,564.334700000006706],[2642123.149000000208616,1218695.375,564.134699999995064],[2642122.51799999922514,1218699.219000000506639,565.337599999998929],[2642121.890999998897314,1218703.030000001192093,564.334700000006706]]]}},
{"type":"Feature","properties":{"fid":275,"OBJECTID":1,"UUID":"{0241BDAF-FECA-476C-BB76-2B1614C5FEC1}","OBJEKTART":"Gebaeude Einzelhaus","NAME_KOMPLETT":null,"GEBAEUDE_NUTZUNG":null,"GRUND_AENDERUNG":"Verbessert","HERKUNFT":"swisstopo","HERKUNFT_JAHR":2024,"HERKUNFT_MONAT":6,"ORIGINAL_HERKUNFT":"swisstopo","ERSTELLUNG_JAHR":2024,"ERSTELLUNG_MONAT":6,"REVISION_JAHR":2024,"REVISION_MONAT":6,"DATUM_AENDERUNG":"2025-07-08T11:55:40Z","DATUM_ERSTELLUNG":"2025-07-08T11:55:40Z","DACH_MAX":571.05,"DACH_MIN":567.57,"EGID":187524,"GEBAEUDEEINHEIT":"{0161A195-33E8-41ED-A8F7-CD5593D4FBF9}","layer":"swissbuildings3d_3_0_2024_1129-33_2056_5728.gdb — swissBUILDINGS3D_3-0_1129-33.gdb/a0000000b.gdbtable","path":"/vsizip//Users/wulf/Downloads/swissbuildings3d_3_0_2024_1129-33_2056_5728.gdb.zip/swissBUILDINGS3D_3-0_1129-33.gdb/a0000000b.gdbtable|layername=Roof_solid"},"geometry":{"type":"Polygon","coordinates":[[[2642148.223999999463558,1218783.537999998778105,576.884500000000116],[2642152.236000001430511,1218766.096000000834465,576.884399999995367],[2642121.436000000685453,1218759.011999998241663,576.884399999995367],[2642117.4239999987185,1218776.454999998211861,576.884500000000116],[2642148.223999999463558,1218783.537999998778105,576.884500000000116]]]}},
{"type":"Feature","properties":{"fid":276,"OBJECTID":1,"UUID":"{0241BDAF-FECA-476C-BB76-2B1614C5FEC1}","OBJEKTART":"Gebaeude Einzelhaus","NAME_KOMPLETT":null,"GEBAEUDE_NUTZUNG":null,"GRUND_AENDERUNG":"Verbessert","HERKUNFT":"swisstopo","HERKUNFT_JAHR":2024,"HERKUNFT_MONAT":6,"ORIGINAL_HERKUNFT":"swisstopo","ERSTELLUNG_JAHR":2024,"ERSTELLUNG_MONAT":6,"REVISION_JAHR":2024,"REVISION_MONAT":6,"DATUM_AENDERUNG":"2025-07-08T11:55:40Z","DATUM_ERSTELLUNG":"2025-07-08T11:55:40Z","DACH_MAX":571.05,"DACH_MIN":567.57,"EGID":187524,"GEBAEUDEEINHEIT":"{0161A195-33E8-41ED-A8F7-CD5593D4FBF9}","layer":"swissbuildings3d_3_0_2024_1129-33_2056_5728.gdb — swissBUILDINGS3D_3-0_1129-33.gdb/a0000000b.gdbtable","path":"/vsizip//Users/wulf/Downloads/swissbuildings3d_3_0_2024_1129-33_2056_5728.gdb.zip/swissBUILDINGS3D_3-0_1129-33.gdb/a0000000b.gdbtable|layername=Roof_solid"},"geometry":{"type":"Polygon","coordinates":[[[2642151.388304531108588,1218460.603496678639203,598.025078549860837],[2642142.897999998182058,1218462.311000000685453,596.944099999993341],[2642144.425999999046326,1218469.901000000536442,596.944099999993341],[2642152.490000000223517,1218468.278613167349249,596.944099999993341],[2642152.490000000223517,1218450.26471981825307,599.819976795844923],[2642149.432,1218450.879999998956919,598.967900000003283],[2642151.388304531108588,1218460.603496678639203,598.025078549860837]]]}},
{"type":"Feature","properties":{"fid":277,"OBJECTID":1,"UUID":"{0241BDAF-FECA-476C-BB76-2B1614C5FEC1}","OBJEKTART":"Gebaeude Einzelhaus","NAME_KOMPLETT":null,"GEBAEUDE_NUTZUNG":null,"GRUND_AENDERUNG":"Verbessert","HERKUNFT":"swisstopo","HERKUNFT_JAHR":2024,"HERKUNFT_MONAT":6,"ORIGINAL_HERKUNFT":"swisstopo","ERSTELLUNG_JAHR":2024,"ERSTELLUNG_MONAT":6,"REVISION_JAHR":2024,"REVISION_MONAT":6,"DATUM_AENDERUNG":"2025-07-08T11:55:40Z","DATUM_ERSTELLUNG":"2025-07-08T11:55:40Z","DACH_MAX":571.05,"DACH_MIN":567.57,"EGID":187524,"GEBAEUDEEINHEIT":"{0161A195-33E8-41ED-A8F7-CD5593D4FBF9}","layer":"swissbuildings3d_3_0_2024_1129-33_2056_5728.gdb — swissBUILDINGS3D_3-0_1129-33.gdb/a0000000b.gdbtable","path":"/vsizip//Users/wulf/Downloads/swissbuildings3d_3_0_2024_1129-33_2056_5728.gdb.zip/swissBUILDINGS3D_3-0_1129-33.gdb/a0000000b.gdbtable|layername=Roof_solid"},"geometry":{"type":"Polygon","coordinates":[[[2642150.401000000536442,1218819.057,574.455700000005891],[2642152.490000000223517,1218809.919145863270387,574.34990106360226],[2642152.490000000223517,1218801.352270735427737,574.455700000005891],[2642123.635000001639128,1218794.75899999961257,574.455700000005891],[2642119.686000000685453,1218812.034000001847744,574.455700000005891],[2642150.401000000536442,1218819.057,574.455700000005891]]]}}
]
}
